{"type":"FeatureCollection","features":[{"type":"Feature","properties":{"id":"osm:n14099815412","name":"Micro 19 - Cinema Dacia","groupId":"g:osm:n14099845135","lineIds":["tram-39","tram-7"],"source":"osm","sourceRef":"node/14099815412"},"geometry":{"type":"Point","coordinates":[28.016019,45.412797]}},{"type":"Feature","properties":{"id":"osm:n14099815413","name":"Oțelarilor","groupId":"g:osm:n14099845134","lineIds":["tram-39","tram-7"],"source":"osm","sourceRef":"node/14099815413"},"geometry":{"type":"Point","coordinates":[28.018749,45.414292]}},{"type":"Feature","properties":{"id":"osm:n14099815414","name":"Bloc D19","groupId":"g:osm:n6896713526","lineIds":["tram-39","tram-7"],"source":"osm","sourceRef":"node/14099815414"},"geometry":{"type":"Point","coordinates":[28.022676,45.416293]}},{"type":"Feature","properties":{"id":"osm:n14099815416","name":"Sala Sporturilor","groupId":"g:osm:n6897924689","lineIds":["tram-39","tram-7"],"source":"osm","sourceRef":"node/14099815416"},"geometry":{"type":"Point","coordinates":[28.021229,45.419661]}},{"type":"Feature","properties":{"id":"osm:n14099815417","name":"Flora","groupId":"g:osm:n6896006829","lineIds":["bus-2","tram-39","tram-7"],"source":"osm","sourceRef":"node/14099815417"},"geometry":{"type":"Point","coordinates":[28.019122,45.429577]}},{"type":"Feature","properties":{"id":"osm:n14099815418","name":"Stadionul Oțelul","groupId":"g:osm:n14099815418","lineIds":["tram-39","tram-7"],"source":"osm","sourceRef":"node/14099815418"},"geometry":{"type":"Point","coordinates":[28.023149,45.430841]}},{"type":"Feature","properties":{"id":"osm:n14099815419","name":"Strada Gheorghe Doja","groupId":"g:osm:n14099845128","lineIds":["tram-39","tram-7"],"source":"osm","sourceRef":"node/14099815419"},"geometry":{"type":"Point","coordinates":[28.02549,45.433783]}},{"type":"Feature","properties":{"id":"osm:n14099815420","name":"IREG","groupId":"g:osm:n14099845127","lineIds":["bus-2","tram-39","tram-7"],"source":"osm","sourceRef":"node/14099815420"},"geometry":{"type":"Point","coordinates":[28.023987,45.436389]}},{"type":"Feature","properties":{"id":"osm:n14099815421","name":"Piața Energiei","groupId":"g:osm:n14099845126","lineIds":["bus-2","tram-39","tram-7"],"source":"osm","sourceRef":"node/14099815421"},"geometry":{"type":"Point","coordinates":[28.021345,45.439744]}},{"type":"Feature","properties":{"id":"osm:n14099815422","name":"Mașniță","groupId":"g:osm:n14099845125","lineIds":["bus-2","tram-39","tram-44"],"source":"osm","sourceRef":"node/14099815422"},"geometry":{"type":"Point","coordinates":[28.021542,45.442109]}},{"type":"Feature","properties":{"id":"osm:n14099815423","name":"Liceul Nr. 3","groupId":"g:osm:n14099845124","lineIds":["tram-39","tram-44"],"source":"osm","sourceRef":"node/14099815423"},"geometry":{"type":"Point","coordinates":[28.025191,45.448407]}},{"type":"Feature","properties":{"id":"osm:n14099815425","name":"Bloc L","groupId":"g:osm:n14099845122","lineIds":["tram-39","tram-44"],"source":"osm","sourceRef":"node/14099815425"},"geometry":{"type":"Point","coordinates":[28.023659,45.450721]}},{"type":"Feature","properties":{"id":"osm:n14099675536","name":"Micro 39","groupId":"g:osm:n14099675535","lineIds":["tram-39","tram-44"],"source":"osm","sourceRef":"node/14099675536"},"geometry":{"type":"Point","coordinates":[28.024188,45.454527]}},{"type":"Feature","properties":{"id":"osm:n14099675538","name":"Patinoar","groupId":"g:osm:n14099675537","lineIds":["tram-39"],"source":"osm","sourceRef":"node/14099675538"},"geometry":{"type":"Point","coordinates":[28.033963,45.455513]}},{"type":"Feature","properties":{"id":"osm:n14099675540","name":"Galmopan","groupId":"g:osm:n14099845120","lineIds":["tram-39"],"source":"osm","sourceRef":"node/14099675540"},"geometry":{"type":"Point","coordinates":[28.034052,45.460988]}},{"type":"Feature","properties":{"id":"osm:n14099815427","name":"Depou","groupId":"g:osm:n14099675542","lineIds":["tram-39"],"source":"osm","sourceRef":"node/14099815427"},"geometry":{"type":"Point","coordinates":[28.03268,45.465112]}},{"type":"Feature","properties":{"id":"osm:n1720639175","name":"Cimitirul „Sfântul Lazăr”","groupId":"g:osm:n14088455591","lineIds":["bus-37","bus-9"],"source":"osm","sourceRef":"node/1720639175"},"geometry":{"type":"Point","coordinates":[28.011684,45.427404]}},{"type":"Feature","properties":{"id":"osm:n1932184795","name":"Țiglina 3","groupId":"g:osm:n1932184800","lineIds":["bus-37","bus-9"],"source":"osm","sourceRef":"node/1932184795"},"geometry":{"type":"Point","coordinates":[28.013816,45.426527]}},{"type":"Feature","properties":{"id":"osm:n1932184796","name":"Minion","groupId":"g:osm:n6875294785","lineIds":["bus-37","bus-9"],"source":"osm","sourceRef":"node/1932184796"},"geometry":{"type":"Point","coordinates":[28.01646,45.42677]}},{"type":"Feature","properties":{"id":"osm:n6874360932","name":"Kaufland","groupId":"g:osm:n6875283385","lineIds":["bus-37","bus-9"],"source":"osm","sourceRef":"node/6874360932"},"geometry":{"type":"Point","coordinates":[28.021383,45.427228]}},{"type":"Feature","properties":{"id":"osm:n529898235","name":"Țiglina 1","groupId":"g:osm:n529898235","lineIds":["bus-1","bus-10","bus-105","bus-106","bus-11","bus-20","bus-23","bus-37","bus-9","trolleybus-102"],"source":"osm","sourceRef":"node/529898235"},"geometry":{"type":"Point","coordinates":[28.028128,45.427606]}},{"type":"Feature","properties":{"id":"osm:n472614576","name":"Romtelecom - Bănci","groupId":"g:osm:n472614576","lineIds":["bus-10","bus-105","bus-106","bus-11","bus-20","bus-24","bus-34","bus-9","trolleybus-102"],"source":"osm","sourceRef":"node/472614576"},"geometry":{"type":"Point","coordinates":[28.039623,45.428674]}},{"type":"Feature","properties":{"id":"osm:n530256106","name":"Mazepa","groupId":"g:osm:n530256106","lineIds":["bus-1","bus-10","bus-105","bus-106","bus-11","bus-20","bus-24","bus-34","bus-9","trolleybus-102"],"source":"osm","sourceRef":"node/530256106"},"geometry":{"type":"Point","coordinates":[28.046217,45.430518]}},{"type":"Feature","properties":{"id":"osm:n6875033916","name":"Potcoava de aur","groupId":"g:osm:n6875033916","lineIds":["bus-1","bus-10","bus-105","bus-106","bus-11","bus-15","bus-20","bus-24","bus-34","bus-9","trolleybus-102"],"source":"osm","sourceRef":"node/6875033916"},"geometry":{"type":"Point","coordinates":[28.050423,45.432733]}},{"type":"Feature","properties":{"id":"osm:n530256646","name":"Galeriile de artă","groupId":"g:osm:n530256646","lineIds":["bus-1","bus-105","bus-106","bus-11","bus-15","bus-9","trolleybus-102"],"source":"osm","sourceRef":"node/530256646"},"geometry":{"type":"Point","coordinates":[28.055705,45.435438]}},{"type":"Feature","properties":{"id":"osm:n530257449","name":"Universitatea „Dunărea de Jos”","groupId":"g:osm:n530257449","lineIds":["bus-105","bus-106","bus-11","bus-15","bus-9","trolleybus-102"],"source":"osm","sourceRef":"node/530257449"},"geometry":{"type":"Point","coordinates":[28.056544,45.439272]}},{"type":"Feature","properties":{"id":"osm:n530257932","name":"Parfumul Teilor","groupId":"g:osm:n530257932","lineIds":["bus-1","bus-105","bus-106","bus-11","bus-9","trolleybus-102"],"source":"osm","sourceRef":"node/530257932"},"geometry":{"type":"Point","coordinates":[28.055948,45.442672]}},{"type":"Feature","properties":{"id":"osm:n6875107385","name":"Gara C.F.R.","groupId":"g:osm:n6875107385","lineIds":["bus-106","bus-15","bus-20","bus-26","bus-9"],"source":"osm","sourceRef":"node/6875107385"},"geometry":{"type":"Point","coordinates":[28.059839,45.444475]}},{"type":"Feature","properties":{"id":"osm:n6895570666","name":"Bariera Traian","groupId":"g:osm:n6899023170","lineIds":["bus-26","bus-28","tram-39B","trolleybus-102"],"source":"osm","sourceRef":"node/6895570666"},"geometry":{"type":"Point","coordinates":[28.036215,45.465314]}},{"type":"Feature","properties":{"id":"osm:n6879824370","name":"Parc C.F.R.","groupId":"g:osm:n6928123651","lineIds":["bus-1","bus-26","trolleybus-102"],"source":"osm","sourceRef":"node/6879824370"},"geometry":{"type":"Point","coordinates":[28.044725,45.462373]}},{"type":"Feature","properties":{"id":"osm:n6879824358","name":"Radu Negru","groupId":"g:osm:n6879824358","lineIds":["bus-26","trolleybus-102"],"source":"osm","sourceRef":"node/6879824358"},"geometry":{"type":"Point","coordinates":[28.046599,45.458909]}},{"type":"Feature","properties":{"id":"osm:n6879824373","name":"A.J.O.F.M.","groupId":"g:osm:n6879824373","lineIds":["bus-26","trolleybus-102"],"source":"osm","sourceRef":"node/6879824373"},"geometry":{"type":"Point","coordinates":[28.047728,45.456949]}},{"type":"Feature","properties":{"id":"osm:n6879824375","name":"Căminele studențești","groupId":"g:osm:n6879824355","lineIds":["bus-1","bus-26","trolleybus-102"],"source":"osm","sourceRef":"node/6879824375"},"geometry":{"type":"Point","coordinates":[28.049343,45.454373]}},{"type":"Feature","properties":{"id":"osm:n6879824376","name":"Muzeul de artă","groupId":"g:osm:n6879824376","lineIds":["bus-105","bus-11","bus-26","trolleybus-102"],"source":"osm","sourceRef":"node/6879824376"},"geometry":{"type":"Point","coordinates":[28.051536,45.450685]}},{"type":"Feature","properties":{"id":"osm:n6879824377","name":"Strada Vultur","groupId":"g:osm:n6879824377","lineIds":["bus-105","bus-11","bus-26","trolleybus-102"],"source":"osm","sourceRef":"node/6879824377"},"geometry":{"type":"Point","coordinates":[28.052945,45.448364]}},{"type":"Feature","properties":{"id":"osm:n534270716","name":"Liceul de Artă","groupId":"g:osm:n534270716","lineIds":["bus-105","bus-11","bus-26","trolleybus-102"],"source":"osm","sourceRef":"node/534270716"},"geometry":{"type":"Point","coordinates":[28.054843,45.445097]}},{"type":"Feature","properties":{"id":"osm:n6879824378","name":"Teatrul dramatic","groupId":"g:osm:n6879824378","lineIds":["trolleybus-102"],"source":"osm","sourceRef":"node/6879824378"},"geometry":{"type":"Point","coordinates":[28.056105,45.441341]}},{"type":"Feature","properties":{"id":"osm:n1932207593","name":"Parc Eminescu","groupId":"g:osm:n1932207593","lineIds":["trolleybus-102"],"source":"osm","sourceRef":"node/1932207593"},"geometry":{"type":"Point","coordinates":[28.055715,45.436129]}},{"type":"Feature","properties":{"id":"osm:n530256687","name":"Centru","groupId":"g:osm:n530256687","lineIds":["bus-10","bus-105","bus-106","bus-11","bus-24","bus-34","bus-9","trolleybus-102"],"source":"osm","sourceRef":"node/530256687"},"geometry":{"type":"Point","coordinates":[28.053964,45.434217]}},{"type":"Feature","properties":{"id":"osm:n530256244","name":"Agenția de Voiaj CFR","groupId":"g:osm:n530256244","lineIds":["bus-10","bus-105","bus-106","bus-11","bus-20","bus-24","bus-34","bus-9","trolleybus-102"],"source":"osm","sourceRef":"node/530256244"},"geometry":{"type":"Point","coordinates":[28.04657,45.431094]}},{"type":"Feature","properties":{"id":"osm:n6875960831","name":"Parcare - Bănci","groupId":"g:osm:n6875960831","lineIds":["bus-10","bus-105","bus-106","bus-11","bus-20","bus-24","bus-34","bus-9","trolleybus-102"],"source":"osm","sourceRef":"node/6875960831"},"geometry":{"type":"Point","coordinates":[28.041414,45.429295]}},{"type":"Feature","properties":{"id":"osm:n530256058","name":"CEC Țiglina 2","groupId":"g:osm:n530256058","lineIds":["bus-105","bus-106","bus-11","bus-23","bus-9","trolleybus-102"],"source":"osm","sourceRef":"node/530256058"},"geometry":{"type":"Point","coordinates":[28.03555,45.428588]}},{"type":"Feature","properties":{"id":"osm:n530776769","name":"Țiglina 2","groupId":"g:osm:n530776769","lineIds":["bus-10","bus-105","bus-106","bus-11","bus-20","bus-23","bus-37","bus-9","trolleybus-102"],"source":"osm","sourceRef":"node/530776769"},"geometry":{"type":"Point","coordinates":[28.028008,45.427933]}},{"type":"Feature","properties":{"id":"osm:n6878557415","name":"Privilege","groupId":"g:osm:n6878557416","lineIds":["bus-1","bus-10","bus-105","bus-106","bus-23","trolleybus-102"],"source":"osm","sourceRef":"node/6878557415"},"geometry":{"type":"Point","coordinates":[28.023322,45.426447]}},{"type":"Feature","properties":{"id":"osm:n6893391135","name":"Farmacia Hygeia","groupId":"g:osm:n6893391135","lineIds":["bus-105","bus-106","bus-23","trolleybus-102"],"source":"osm","sourceRef":"node/6893391135"},"geometry":{"type":"Point","coordinates":[28.016862,45.419113]}},{"type":"Feature","properties":{"id":"osm:n6893391133","name":"Service Vechi","groupId":"g:osm:n6893391133","lineIds":["bus-105","bus-106","bus-23","trolleybus-102"],"source":"osm","sourceRef":"node/6893391133"},"geometry":{"type":"Point","coordinates":[28.012429,45.41685]}},{"type":"Feature","properties":{"id":"osm:n123745651","name":"Micro 19","groupId":"g:osm:n6935117729","lineIds":["bus-1","bus-10","bus-105","bus-106","bus-2","bus-28","bus-30","bus-31","bus-38","bus-41","trolleybus-102"],"source":"osm","sourceRef":"node/123745651"},"geometry":{"type":"Point","coordinates":[28.012475,45.413315]}},{"type":"Feature","properties":{"id":"osm:n4907189684","name":"Bulevardul Galați","groupId":"g:osm:n4907189684","lineIds":["bus-10","bus-105","bus-106","bus-23","bus-41"],"source":"osm","sourceRef":"node/4907189684"},"geometry":{"type":"Point","coordinates":[28.014793,45.410885]}},{"type":"Feature","properties":{"id":"osm:n6896713532","name":"Bulevardul Dunărea","groupId":"g:osm:n6896713532","lineIds":["bus-10"],"source":"osm","sourceRef":"node/6896713532"},"geometry":{"type":"Point","coordinates":[28.017686,45.409934]}},{"type":"Feature","properties":{"id":"osm:n6896713530","name":"Cinema Dacia","groupId":"g:osm:n14090438576","lineIds":["bus-10"],"source":"osm","sourceRef":"node/6896713530"},"geometry":{"type":"Point","coordinates":[28.016894,45.412838]}},{"type":"Feature","properties":{"id":"osm:n6896713528","name":"Strada Oțelarilor","groupId":"g:osm:n6897924685","lineIds":["bus-10"],"source":"osm","sourceRef":"node/6896713528"},"geometry":{"type":"Point","coordinates":[28.019122,45.41437]}},{"type":"Feature","properties":{"id":"osm:n6896713526","name":"Bloc D19","groupId":"g:osm:n6896713526","lineIds":["bus-10"],"source":"osm","sourceRef":"node/6896713526"},"geometry":{"type":"Point","coordinates":[28.022919,45.416376]}},{"type":"Feature","properties":{"id":"osm:n6896716339","name":"Sala Sporturilor","groupId":"g:osm:n6897924689","lineIds":["bus-10"],"source":"osm","sourceRef":"node/6896716339"},"geometry":{"type":"Point","coordinates":[28.02147,45.419539]}},{"type":"Feature","properties":{"id":"osm:n6878557416","name":"Privilege","groupId":"g:osm:n6878557416","lineIds":["bus-10","bus-105","bus-106","bus-23","trolleybus-102"],"source":"osm","sourceRef":"node/6878557416"},"geometry":{"type":"Point","coordinates":[28.02336,45.426148]}},{"type":"Feature","properties":{"id":"osm:n2904472149","name":"Orășelul Copiilor","groupId":"g:osm:n6878887487","lineIds":["bus-1","bus-10","bus-20"],"source":"osm","sourceRef":"node/2904472149"},"geometry":{"type":"Point","coordinates":[28.032384,45.426367]}},{"type":"Feature","properties":{"id":"osm:n6875033913","name":"Complex Francezi","groupId":"g:osm:n6878866488","lineIds":["bus-1","bus-10","bus-20"],"source":"osm","sourceRef":"node/6875033913"},"geometry":{"type":"Point","coordinates":[28.033724,45.422634]}},{"type":"Feature","properties":{"id":"osm:n6875033914","name":"Bloc E6","groupId":"g:osm:n6878887486","lineIds":["bus-1","bus-10","bus-20"],"source":"osm","sourceRef":"node/6875033914"},"geometry":{"type":"Point","coordinates":[28.0375,45.4236]}},{"type":"Feature","properties":{"id":"osm:n6875033915","name":"Centrul de recoltare","groupId":"g:osm:n6875033915","lineIds":["bus-1","bus-10","bus-20"],"source":"osm","sourceRef":"node/6875033915"},"geometry":{"type":"Point","coordinates":[28.038648,45.425879]}},{"type":"Feature","properties":{"id":"osm:n6892672437","name":"Complex Spicul","groupId":"g:osm:n6893391137","lineIds":["bus-10","bus-15","bus-24","bus-34"],"source":"osm","sourceRef":"node/6892672437"},"geometry":{"type":"Point","coordinates":[28.056132,45.432261]}},{"type":"Feature","properties":{"id":"osm:n6892672435","name":"Navrom","groupId":"g:osm:n6893391138","lineIds":["bus-10","bus-15","bus-24","bus-34"],"source":"osm","sourceRef":"node/6892672435"},"geometry":{"type":"Point","coordinates":[28.061795,45.431741]}},{"type":"Feature","properties":{"id":"osm:n6896819822","name":"Liceul de Marină","groupId":"g:osm:n6897791665","lineIds":["bus-10","bus-24","bus-34"],"source":"osm","sourceRef":"node/6896819822"},"geometry":{"type":"Point","coordinates":[28.066321,45.434133]}},{"type":"Feature","properties":{"id":"osm:n14090438578","name":"Ana Ipătescu","groupId":"g:osm:n14090438575","lineIds":["bus-10","bus-24","bus-34"],"source":"osm","sourceRef":"node/14090438578"},"geometry":{"type":"Point","coordinates":[28.068071,45.437092]}},{"type":"Feature","properties":{"id":"osm:n14090438573","name":"Strada Alexandru Moruzzi","groupId":"g:osm:n14090438580","lineIds":["bus-10","bus-24","bus-34"],"source":"osm","sourceRef":"node/14090438573"},"geometry":{"type":"Point","coordinates":[28.065967,45.440334]}},{"type":"Feature","properties":{"id":"osm:n6896966052","name":"Moruzzi","groupId":"g:osm:n6897791669","lineIds":["bus-10","bus-24"],"source":"osm","sourceRef":"node/6896966052"},"geometry":{"type":"Point","coordinates":[28.070094,45.441921]}},{"type":"Feature","properties":{"id":"osm:n6896966050","name":"Strada Lemnari","groupId":"g:osm:n6897791671","lineIds":["bus-10","bus-24"],"source":"osm","sourceRef":"node/6896966050"},"geometry":{"type":"Point","coordinates":[28.075476,45.444976]}},{"type":"Feature","properties":{"id":"osm:n6896966048","name":"EEKELS","groupId":"g:osm:n6897791673","lineIds":["bus-10","bus-24"],"source":"osm","sourceRef":"node/6896966048"},"geometry":{"type":"Point","coordinates":[28.080546,45.445424]}},{"type":"Feature","properties":{"id":"osm:n6896966047","name":"Damen","groupId":"g:osm:n6896966047","lineIds":["bus-10","bus-24"],"source":"osm","sourceRef":"node/6896966047"},"geometry":{"type":"Point","coordinates":[28.082943,45.444036]}},{"type":"Feature","properties":{"id":"osm:n529895200","name":"Neacșu","groupId":"g:osm:n529895200","lineIds":["bus-1","bus-105","bus-106","bus-23","trolleybus-102"],"source":"osm","sourceRef":"node/529895200"},"geometry":{"type":"Point","coordinates":[28.013041,45.416959]}},{"type":"Feature","properties":{"id":"osm:n530187911","name":"Spitalul Județean de Urgență","groupId":"g:osm:n530187911","lineIds":["bus-1","bus-105","bus-106","bus-23","trolleybus-102"],"source":"osm","sourceRef":"node/530187911"},"geometry":{"type":"Point","coordinates":[28.017771,45.419351]}},{"type":"Feature","properties":{"id":"osm:n530258190","name":"Direcția Agricolă","groupId":"g:osm:n530258190","lineIds":["bus-1","bus-105","bus-11","bus-26","trolleybus-102"],"source":"osm","sourceRef":"node/530258190"},"geometry":{"type":"Point","coordinates":[28.054873,45.445402]}},{"type":"Feature","properties":{"id":"osm:n6879824354","name":"Bloc Ialomița","groupId":"g:osm:n6879824354","lineIds":["bus-1","bus-105","bus-11","bus-26","trolleybus-102"],"source":"osm","sourceRef":"node/6879824354"},"geometry":{"type":"Point","coordinates":[28.052449,45.449566]}},{"type":"Feature","properties":{"id":"osm:n6879824355","name":"Căminele studențești","groupId":"g:osm:n6879824355","lineIds":["bus-26","trolleybus-102"],"source":"osm","sourceRef":"node/6879824355"},"geometry":{"type":"Point","coordinates":[28.049754,45.453992]}},{"type":"Feature","properties":{"id":"osm:n6879824356","name":"Căminul de bătrâni","groupId":"g:osm:n6879824356","lineIds":["bus-1","bus-26","trolleybus-102"],"source":"osm","sourceRef":"node/6879824356"},"geometry":{"type":"Point","coordinates":[28.047311,45.458049]}},{"type":"Feature","properties":{"id":"osm:n6928123651","name":"Parc C.F.R.","groupId":"g:osm:n6928123651","lineIds":["bus-26","trolleybus-102"],"source":"osm","sourceRef":"node/6928123651"},"geometry":{"type":"Point","coordinates":[28.043817,45.463344]}},{"type":"Feature","properties":{"id":"osm:n6895570670","name":"Strada Prundului","groupId":"g:osm:n6896006860","lineIds":["bus-26","bus-28","bus-35","bus-50","bus-55","trolleybus-102"],"source":"osm","sourceRef":"node/6895570670"},"geometry":{"type":"Point","coordinates":[28.036937,45.46306]}},{"type":"Feature","properties":{"id":"osm:n6881503385","name":"Autogară","groupId":"g:osm:n6893391144","lineIds":["bus-106","bus-15","bus-20","bus-26","bus-9"],"source":"osm","sourceRef":"node/6881503385"},"geometry":{"type":"Point","coordinates":[28.058557,45.443335]}},{"type":"Feature","properties":{"id":"osm:n534270437","name":"Gării","groupId":"g:osm:n534270437","lineIds":["bus-105","bus-106","bus-11","bus-9"],"source":"osm","sourceRef":"node/534270437"},"geometry":{"type":"Point","coordinates":[28.053716,45.44384]}},{"type":"Feature","properties":{"id":"osm:n534268996","name":"F.E.E.A.","groupId":"g:osm:n534268996","lineIds":["bus-106","bus-11","bus-9"],"source":"osm","sourceRef":"node/534268996"},"geometry":{"type":"Point","coordinates":[28.051757,45.443251]}},{"type":"Feature","properties":{"id":"osm:n534268981","name":"C.N.V.A.","groupId":"g:osm:n534268981","lineIds":["bus-105","bus-106","bus-11","bus-9"],"source":"osm","sourceRef":"node/534268981"},"geometry":{"type":"Point","coordinates":[28.05213,45.440625]}},{"type":"Feature","properties":{"id":"osm:n614962899","name":"Bloc Albatros","groupId":"g:osm:n614962899","lineIds":["bus-105","bus-106","bus-11","bus-9"],"source":"osm","sourceRef":"node/614962899"},"geometry":{"type":"Point","coordinates":[28.052645,45.436917]}},{"type":"Feature","properties":{"id":"osm:n6875283385","name":"Kaufland","groupId":"g:osm:n6875283385","lineIds":["bus-37","bus-9"],"source":"osm","sourceRef":"node/6875283385"},"geometry":{"type":"Point","coordinates":[28.021357,45.427364]}},{"type":"Feature","properties":{"id":"osm:n6875294785","name":"Minion","groupId":"g:osm:n6875294785","lineIds":["bus-37","bus-9"],"source":"osm","sourceRef":"node/6875294785"},"geometry":{"type":"Point","coordinates":[28.016446,45.42693]}},{"type":"Feature","properties":{"id":"osm:n1932184800","name":"Țiglina 3","groupId":"g:osm:n1932184800","lineIds":["bus-37","bus-9"],"source":"osm","sourceRef":"node/1932184800"},"geometry":{"type":"Point","coordinates":[28.014318,45.426798]}},{"type":"Feature","properties":{"id":"osm:n6893391131","name":"IATSA","groupId":"g:osm:n6893391131","lineIds":["bus-105","bus-106","bus-2","bus-28","bus-30","bus-31","bus-38"],"source":"osm","sourceRef":"node/6893391131"},"geometry":{"type":"Point","coordinates":[28.007225,45.41423]}},{"type":"Feature","properties":{"id":"osm:n6894593246","name":"Lidl","groupId":"g:osm:n6896163910","lineIds":["bus-28"],"source":"osm","sourceRef":"node/6894593246"},"geometry":{"type":"Point","coordinates":[28.007533,45.416151]}},{"type":"Feature","properties":{"id":"osm:n6894593244","name":"Școala Nr. 40","groupId":"g:osm:n6896163912","lineIds":["bus-2","bus-28","bus-38"],"source":"osm","sourceRef":"node/6894593244"},"geometry":{"type":"Point","coordinates":[28.010128,45.417326]}},{"type":"Feature","properties":{"id":"osm:n6894593242","name":"Piața Micro 17","groupId":"g:osm:n6896006822","lineIds":["bus-2","bus-28"],"source":"osm","sourceRef":"node/6894593242"},"geometry":{"type":"Point","coordinates":[28.014028,45.419353]}},{"type":"Feature","properties":{"id":"osm:n6894593240","name":"Liceul Dunărea","groupId":"g:osm:n6896006824","lineIds":["bus-2","bus-28"],"source":"osm","sourceRef":"node/6894593240"},"geometry":{"type":"Point","coordinates":[28.016983,45.420888]}},{"type":"Feature","properties":{"id":"osm:n6882472288","name":"Casa Minion","groupId":"g:osm:n6896006826","lineIds":["bus-2","bus-28"],"source":"osm","sourceRef":"node/6882472288"},"geometry":{"type":"Point","coordinates":[28.017533,45.42299]}},{"type":"Feature","properties":{"id":"osm:n6894593237","name":"Strada Oltului","groupId":"g:osm:n6878887889","lineIds":["bus-28"],"source":"osm","sourceRef":"node/6894593237"},"geometry":{"type":"Point","coordinates":[28.017426,45.424961]}},{"type":"Feature","properties":{"id":"osm:n6894604139","name":"Flora","groupId":"g:osm:n6896006829","lineIds":["bus-28"],"source":"osm","sourceRef":"node/6894604139"},"geometry":{"type":"Point","coordinates":[28.019097,45.429253]}},{"type":"Feature","properties":{"id":"osm:n6894604138","name":"Biserica „Sfântul Vasile”","groupId":"g:osm:n6894604138","lineIds":["bus-2","bus-28"],"source":"osm","sourceRef":"node/6894604138"},"geometry":{"type":"Point","coordinates":[28.021411,45.431699]}},{"type":"Feature","properties":{"id":"osm:n6894604136","name":"IREG","groupId":"g:osm:n14099845127","lineIds":["bus-11","bus-28"],"source":"osm","sourceRef":"node/6894604136"},"geometry":{"type":"Point","coordinates":[28.024657,45.435743]}},{"type":"Feature","properties":{"id":"osm:n6894604134","name":"Piața Energiei","groupId":"g:osm:n14099845126","lineIds":["bus-11","bus-28"],"source":"osm","sourceRef":"node/6894604134"},"geometry":{"type":"Point","coordinates":[28.021842,45.439282]}},{"type":"Feature","properties":{"id":"osm:n6894604132","name":"Mașniță","groupId":"g:osm:n14099845125","lineIds":["bus-11","bus-28"],"source":"osm","sourceRef":"node/6894604132"},"geometry":{"type":"Point","coordinates":[28.021562,45.441923]}},{"type":"Feature","properties":{"id":"osm:n6894604130","name":"Strada 9 Mai","groupId":"g:osm:n6894604130","lineIds":["bus-11","bus-2","bus-28"],"source":"osm","sourceRef":"node/6894604130"},"geometry":{"type":"Point","coordinates":[28.023327,45.444981]}},{"type":"Feature","properties":{"id":"osm:n6894604128","name":"Strada Aurel Vlaicu","groupId":"g:osm:n6960962995","lineIds":["bus-11","bus-2","bus-28"],"source":"osm","sourceRef":"node/6894604128"},"geometry":{"type":"Point","coordinates":[28.025052,45.447926]}},{"type":"Feature","properties":{"id":"osm:n6963443072","name":"Strada Aurel Vlaicu","groupId":"g:osm:n6960962995","lineIds":["bus-24","bus-28"],"source":"osm","sourceRef":"node/6963443072"},"geometry":{"type":"Point","coordinates":[28.026655,45.448033]}},{"type":"Feature","properties":{"id":"osm:n14093719323","name":"Odobești","groupId":"g:osm:n14093679176","lineIds":["bus-28"],"source":"osm","sourceRef":"node/14093719323"},"geometry":{"type":"Point","coordinates":[28.03334,45.448359]}},{"type":"Feature","properties":{"id":"osm:n6899023176","name":"Mehid","groupId":"g:osm:n6899023176","lineIds":["bus-23","bus-28","bus-34"],"source":"osm","sourceRef":"node/6899023176"},"geometry":{"type":"Point","coordinates":[28.035327,45.448709]}},{"type":"Feature","properties":{"id":"osm:n6895095252","name":"Bucovinei","groupId":"g:osm:n6896006850","lineIds":["bus-28"],"source":"osm","sourceRef":"node/6895095252"},"geometry":{"type":"Point","coordinates":[28.039319,45.450964]}},{"type":"Feature","properties":{"id":"osm:n14093698654","name":"Rizer","groupId":"g:osm:n14093679179","lineIds":["bus-28"],"source":"osm","sourceRef":"node/14093698654"},"geometry":{"type":"Point","coordinates":[28.042434,45.450646]}},{"type":"Feature","properties":{"id":"osm:n6895095246","name":"Strada Cezar","groupId":"g:osm:n6896006854","lineIds":["bus-28","bus-35","bus-50","bus-55"],"source":"osm","sourceRef":"node/6895095246"},"geometry":{"type":"Point","coordinates":[28.042384,45.452521]}},{"type":"Feature","properties":{"id":"osm:n6895095244","name":"Strada Radu Negru","groupId":"g:osm:n6896006856","lineIds":["bus-28","bus-35","bus-50","bus-55"],"source":"osm","sourceRef":"node/6895095244"},"geometry":{"type":"Point","coordinates":[28.040379,45.456442]}},{"type":"Feature","properties":{"id":"osm:n6895570669","name":"Spitalul Municipal","groupId":"g:osm:n6896006858","lineIds":["bus-28","bus-35","bus-50","bus-55"],"source":"osm","sourceRef":"node/6895570669"},"geometry":{"type":"Point","coordinates":[28.038931,45.459189]}},{"type":"Feature","properties":{"id":"osm:n6906838265","name":"Bariera Traian","groupId":"g:osm:n6899023170","lineIds":["bus-26","bus-28","bus-35","bus-50","bus-55"],"source":"osm","sourceRef":"node/6906838265"},"geometry":{"type":"Point","coordinates":[28.035795,45.464857]}},{"type":"Feature","properties":{"id":"osm:n6896006860","name":"Strada Prundului","groupId":"g:osm:n6896006860","lineIds":["bus-28","bus-35","bus-50","bus-55"],"source":"osm","sourceRef":"node/6896006860"},"geometry":{"type":"Point","coordinates":[28.036843,45.463008]}},{"type":"Feature","properties":{"id":"osm:n6896006858","name":"Spitalul Municipal","groupId":"g:osm:n6896006858","lineIds":["bus-28","bus-35","bus-50","bus-55"],"source":"osm","sourceRef":"node/6896006858"},"geometry":{"type":"Point","coordinates":[28.038634,45.459439]}},{"type":"Feature","properties":{"id":"osm:n6896006856","name":"Strada Radu Negru","groupId":"g:osm:n6896006856","lineIds":["bus-28","bus-35","bus-50","bus-55"],"source":"osm","sourceRef":"node/6896006856"},"geometry":{"type":"Point","coordinates":[28.040088,45.456678]}},{"type":"Feature","properties":{"id":"osm:n6896006854","name":"Strada Cezar","groupId":"g:osm:n6896006854","lineIds":["bus-28","bus-35","bus-50","bus-55"],"source":"osm","sourceRef":"node/6896006854"},"geometry":{"type":"Point","coordinates":[28.042179,45.452597]}},{"type":"Feature","properties":{"id":"osm:n14093679179","name":"Rizer","groupId":"g:osm:n14093679179","lineIds":["bus-28"],"source":"osm","sourceRef":"node/14093679179"},"geometry":{"type":"Point","coordinates":[28.04228,45.450778]}},{"type":"Feature","properties":{"id":"osm:n6896006850","name":"Bucovinei","groupId":"g:osm:n6896006850","lineIds":["bus-28"],"source":"osm","sourceRef":"node/6896006850"},"geometry":{"type":"Point","coordinates":[28.039317,45.451233]}},{"type":"Feature","properties":{"id":"osm:n6960963010","name":"Shopping City","groupId":"g:osm:n6960963010","lineIds":["bus-23","bus-24","bus-25","bus-28"],"source":"osm","sourceRef":"node/6960963010"},"geometry":{"type":"Point","coordinates":[28.031888,45.452612]}},{"type":"Feature","properties":{"id":"osm:n14093679176","name":"Odobești","groupId":"g:osm:n14093679176","lineIds":["bus-28"],"source":"osm","sourceRef":"node/14093679176"},"geometry":{"type":"Point","coordinates":[28.033296,45.448421]}},{"type":"Feature","properties":{"id":"osm:n6960962995","name":"Strada Aurel Vlaicu","groupId":"g:osm:n6960962995","lineIds":["bus-24","bus-28"],"source":"osm","sourceRef":"node/6960962995"},"geometry":{"type":"Point","coordinates":[28.026596,45.448207]}},{"type":"Feature","properties":{"id":"osm:n6896006841","name":"Liceul Nr. 3","groupId":"g:osm:n14099845124","lineIds":["bus-11","bus-28"],"source":"osm","sourceRef":"node/6896006841"},"geometry":{"type":"Point","coordinates":[28.024607,45.447851]}},{"type":"Feature","properties":{"id":"osm:n6896006839","name":"Mașniță","groupId":"g:osm:n14099845125","lineIds":["bus-11","bus-28"],"source":"osm","sourceRef":"node/6896006839"},"geometry":{"type":"Point","coordinates":[28.021879,45.443073]}},{"type":"Feature","properties":{"id":"osm:n6896006837","name":"Piața Energiei","groupId":"g:osm:n14099845126","lineIds":["bus-11","bus-28","bus-43"],"source":"osm","sourceRef":"node/6896006837"},"geometry":{"type":"Point","coordinates":[28.020582,45.439864]}},{"type":"Feature","properties":{"id":"osm:n6896006835","name":"IREG","groupId":"g:osm:n14099845127","lineIds":["bus-11","bus-28"],"source":"osm","sourceRef":"node/6896006835"},"geometry":{"type":"Point","coordinates":[28.024613,45.435306]}},{"type":"Feature","properties":{"id":"osm:n6896006833","name":"Strada Gheorghe Doja","groupId":"g:osm:n14099845128","lineIds":["bus-20","bus-28"],"source":"osm","sourceRef":"node/6896006833"},"geometry":{"type":"Point","coordinates":[28.024117,45.434126]}},{"type":"Feature","properties":{"id":"osm:n6896006831","name":"Bingo Europa","groupId":"g:osm:n6896006831","lineIds":["bus-28"],"source":"osm","sourceRef":"node/6896006831"},"geometry":{"type":"Point","coordinates":[28.02072,45.431112]}},{"type":"Feature","properties":{"id":"osm:n6896006829","name":"Flora","groupId":"g:osm:n6896006829","lineIds":["bus-28"],"source":"osm","sourceRef":"node/6896006829"},"geometry":{"type":"Point","coordinates":[28.018814,45.429184]}},{"type":"Feature","properties":{"id":"osm:n6878887889","name":"Strada Oltului","groupId":"g:osm:n6878887889","lineIds":["bus-28"],"source":"osm","sourceRef":"node/6878887889"},"geometry":{"type":"Point","coordinates":[28.017229,45.425787]}},{"type":"Feature","properties":{"id":"osm:n6896006826","name":"Casa Minion","groupId":"g:osm:n6896006826","lineIds":["bus-28"],"source":"osm","sourceRef":"node/6896006826"},"geometry":{"type":"Point","coordinates":[28.017398,45.422408]}},{"type":"Feature","properties":{"id":"osm:n6896006824","name":"Liceul Dunărea","groupId":"g:osm:n6896006824","lineIds":["bus-28"],"source":"osm","sourceRef":"node/6896006824"},"geometry":{"type":"Point","coordinates":[28.016126,45.420568]}},{"type":"Feature","properties":{"id":"osm:n6896006822","name":"Piața Micro 17","groupId":"g:osm:n6896006822","lineIds":["bus-28","bus-38"],"source":"osm","sourceRef":"node/6896006822"},"geometry":{"type":"Point","coordinates":[28.013859,45.419377]}},{"type":"Feature","properties":{"id":"osm:n6896163912","name":"Școala Nr. 40","groupId":"g:osm:n6896163912","lineIds":["bus-28","bus-38"],"source":"osm","sourceRef":"node/6896163912"},"geometry":{"type":"Point","coordinates":[28.009316,45.417062]}},{"type":"Feature","properties":{"id":"osm:n6896163910","name":"Lidl","groupId":"g:osm:n6896163910","lineIds":["bus-28"],"source":"osm","sourceRef":"node/6896163910"},"geometry":{"type":"Point","coordinates":[28.007487,45.41627]}},{"type":"Feature","properties":{"id":"osm:n6892672442","name":"Grădinița Prichindel","groupId":"g:osm:n6892672442","lineIds":["bus-105","bus-106","bus-28","bus-30","bus-31","bus-38"],"source":"osm","sourceRef":"node/6892672442"},"geometry":{"type":"Point","coordinates":[28.007024,45.413945]}},{"type":"Feature","properties":{"id":"osm:n6897791673","name":"EEKELS","groupId":"g:osm:n6897791673","lineIds":["bus-10","bus-24"],"source":"osm","sourceRef":"node/6897791673"},"geometry":{"type":"Point","coordinates":[28.080673,45.445443]}},{"type":"Feature","properties":{"id":"osm:n6897791671","name":"Strada Lemnari","groupId":"g:osm:n6897791671","lineIds":["bus-10","bus-24"],"source":"osm","sourceRef":"node/6897791671"},"geometry":{"type":"Point","coordinates":[28.075707,45.445217]}},{"type":"Feature","properties":{"id":"osm:n6897791669","name":"Moruzzi","groupId":"g:osm:n6897791669","lineIds":["bus-10","bus-24"],"source":"osm","sourceRef":"node/6897791669"},"geometry":{"type":"Point","coordinates":[28.069904,45.442083]}},{"type":"Feature","properties":{"id":"osm:n14090438580","name":"Strada Alexandru Moruzzi","groupId":"g:osm:n14090438580","lineIds":["bus-10","bus-24"],"source":"osm","sourceRef":"node/14090438580"},"geometry":{"type":"Point","coordinates":[28.066014,45.440532]}},{"type":"Feature","properties":{"id":"osm:n14090438575","name":"Ana Ipătescu","groupId":"g:osm:n14090438575","lineIds":["bus-10","bus-24"],"source":"osm","sourceRef":"node/14090438575"},"geometry":{"type":"Point","coordinates":[28.067792,45.437055]}},{"type":"Feature","properties":{"id":"osm:n6897791665","name":"Liceul de Marină","groupId":"g:osm:n6897791665","lineIds":["bus-10","bus-24","bus-34"],"source":"osm","sourceRef":"node/6897791665"},"geometry":{"type":"Point","coordinates":[28.066026,45.434249]}},{"type":"Feature","properties":{"id":"osm:n6893391138","name":"Navrom","groupId":"g:osm:n6893391138","lineIds":["bus-10","bus-15","bus-24","bus-34"],"source":"osm","sourceRef":"node/6893391138"},"geometry":{"type":"Point","coordinates":[28.060643,45.43133]}},{"type":"Feature","properties":{"id":"osm:n6893391137","name":"Complex Spicul","groupId":"g:osm:n6893391137","lineIds":["bus-10","bus-15","bus-24","bus-34"],"source":"osm","sourceRef":"node/6893391137"},"geometry":{"type":"Point","coordinates":[28.056161,45.432305]}},{"type":"Feature","properties":{"id":"osm:n6878887385","name":"Tribunal","groupId":"g:osm:n6878887385","lineIds":["bus-10","bus-20"],"source":"osm","sourceRef":"node/6878887385"},"geometry":{"type":"Point","coordinates":[28.038083,45.426166]}},{"type":"Feature","properties":{"id":"osm:n6878887486","name":"Bloc E6","groupId":"g:osm:n6878887486","lineIds":["bus-10","bus-20"],"source":"osm","sourceRef":"node/6878887486"},"geometry":{"type":"Point","coordinates":[28.036824,45.423311]}},{"type":"Feature","properties":{"id":"osm:n6878866488","name":"Complex Francezi","groupId":"g:osm:n6878866488","lineIds":["bus-10","bus-20"],"source":"osm","sourceRef":"node/6878866488"},"geometry":{"type":"Point","coordinates":[28.034161,45.42259]}},{"type":"Feature","properties":{"id":"osm:n6878887487","name":"Orășelul Copiilor","groupId":"g:osm:n6878887487","lineIds":["bus-10","bus-20"],"source":"osm","sourceRef":"node/6878887487"},"geometry":{"type":"Point","coordinates":[28.032103,45.426669]}},{"type":"Feature","properties":{"id":"osm:n6897924689","name":"Sala Sporturilor","groupId":"g:osm:n6897924689","lineIds":["bus-10"],"source":"osm","sourceRef":"node/6897924689"},"geometry":{"type":"Point","coordinates":[28.020721,45.41992]}},{"type":"Feature","properties":{"id":"osm:n6897924687","name":"Bloc O","groupId":"g:osm:n14099845133","lineIds":["bus-10"],"source":"osm","sourceRef":"node/6897924687"},"geometry":{"type":"Point","coordinates":[28.022757,45.416443]}},{"type":"Feature","properties":{"id":"osm:n6897924685","name":"Strada Oțelarilor","groupId":"g:osm:n6897924685","lineIds":["bus-10"],"source":"osm","sourceRef":"node/6897924685"},"geometry":{"type":"Point","coordinates":[28.019019,45.414532]}},{"type":"Feature","properties":{"id":"osm:n14090438576","name":"Cinema Dacia","groupId":"g:osm:n14090438576","lineIds":["bus-10"],"source":"osm","sourceRef":"node/14090438576"},"geometry":{"type":"Point","coordinates":[28.014918,45.412455]}},{"type":"Feature","properties":{"id":"osm:n14086091994","name":"Grădina publică","groupId":"g:osm:n6898365514","lineIds":["bus-105","bus-11"],"source":"osm","sourceRef":"node/14086091994"},"geometry":{"type":"Point","coordinates":[28.051071,45.451365]}},{"type":"Feature","properties":{"id":"osm:n6893391129","name":"Cimitirul „Cătușa”","groupId":"g:osm:n6892672444","lineIds":["bus-105","bus-106"],"source":"osm","sourceRef":"node/6893391129"},"geometry":{"type":"Point","coordinates":[28.00635,45.413044]}},{"type":"Feature","properties":{"id":"osm:n6893391127","name":"Bloc B3","groupId":"g:osm:n6893391127","lineIds":["bus-105","bus-106"],"source":"osm","sourceRef":"node/6893391127"},"geometry":{"type":"Point","coordinates":[28.008424,45.411041]}},{"type":"Feature","properties":{"id":"osm:n6893391125","name":"Zenner","groupId":"g:osm:n6892672447","lineIds":["bus-105","bus-106"],"source":"osm","sourceRef":"node/6893391125"},"geometry":{"type":"Point","coordinates":[28.011302,45.409167]}},{"type":"Feature","properties":{"id":"osm:n6893391123","name":"Facultatea de Medicină","groupId":"g:osm:n6893391123","lineIds":["bus-1","bus-105","bus-106","bus-23","bus-41"],"source":"osm","sourceRef":"node/6893391123"},"geometry":{"type":"Point","coordinates":[28.014912,45.410674]}},{"type":"Feature","properties":{"id":"osm:n6892672447","name":"Zenner","groupId":"g:osm:n6892672447","lineIds":["bus-105","bus-106"],"source":"osm","sourceRef":"node/6892672447"},"geometry":{"type":"Point","coordinates":[28.011112,45.409335]}},{"type":"Feature","properties":{"id":"osm:n6892672446","name":"Bloc A8","groupId":"g:osm:n6892672446","lineIds":["bus-105","bus-106"],"source":"osm","sourceRef":"node/6892672446"},"geometry":{"type":"Point","coordinates":[28.008316,45.411386]}},{"type":"Feature","properties":{"id":"osm:n6892672444","name":"Cimitirul „Cătușa”","groupId":"g:osm:n6892672444","lineIds":["bus-105","bus-106"],"source":"osm","sourceRef":"node/6892672444"},"geometry":{"type":"Point","coordinates":[28.0067,45.412956]}},{"type":"Feature","properties":{"id":"osm:n6898365514","name":"Grădina publică","groupId":"g:osm:n6898365514","lineIds":["bus-105","bus-11"],"source":"osm","sourceRef":"node/6898365514"},"geometry":{"type":"Point","coordinates":[28.051417,45.451647]}},{"type":"Feature","properties":{"id":"osm:n6898532664","name":"Micro 13","groupId":"g:osm:n6898532664","lineIds":["bus-11","bus-2","bus-25","bus-26","bus-34"],"source":"osm","sourceRef":"node/6898532664"},"geometry":{"type":"Point","coordinates":[28.019614,45.450562]}},{"type":"Feature","properties":{"id":"osm:n8689062536","name":"Complex Ionescu","groupId":"g:osm:n8689062536","lineIds":["bus-11","bus-26","bus-34"],"source":"osm","sourceRef":"node/8689062536"},"geometry":{"type":"Point","coordinates":[28.018616,45.454039]}},{"type":"Feature","properties":{"id":"osm:n6898532661","name":"Strada Ionel Fernic","groupId":"g:osm:n6898532661","lineIds":["bus-11","bus-26","bus-34"],"source":"osm","sourceRef":"node/6898532661"},"geometry":{"type":"Point","coordinates":[28.018812,45.456604]}},{"type":"Feature","properties":{"id":"osm:n6898532659","name":"Strada Traian Vuia","groupId":"g:osm:n6898532659","lineIds":["bus-11","bus-26","bus-34"],"source":"osm","sourceRef":"node/6898532659"},"geometry":{"type":"Point","coordinates":[28.022263,45.457968]}},{"type":"Feature","properties":{"id":"osm:n6896006844","name":"Piața Micro 39","groupId":"g:osm:n6895095257","lineIds":["bus-11","bus-24","bus-25","bus-26","bus-34"],"source":"osm","sourceRef":"node/6896006844"},"geometry":{"type":"Point","coordinates":[28.023879,45.454357]}},{"type":"Feature","properties":{"id":"osm:n6896006843","name":"Bloc L","groupId":"g:osm:n14099845122","lineIds":["bus-11","bus-24","bus-25","bus-26","bus-34"],"source":"osm","sourceRef":"node/6896006843"},"geometry":{"type":"Point","coordinates":[28.023425,45.450874]}},{"type":"Feature","properties":{"id":"osm:n1720639132","name":"Casa Roșie","groupId":"g:osm:n1720639168","lineIds":["bus-11","bus-20"],"source":"osm","sourceRef":"node/1720639132"},"geometry":{"type":"Point","coordinates":[28.024641,45.429831]}},{"type":"Feature","properties":{"id":"osm:n6898532656","name":"Piața centrală","groupId":"g:osm:n13353085396","lineIds":["bus-11","bus-13","bus-15","bus-20","bus-35","bus-50","bus-55","tram-44","tram-7"],"source":"osm","sourceRef":"node/6898532656"},"geometry":{"type":"Point","coordinates":[28.049627,45.43806]}},{"type":"Feature","properties":{"id":"osm:n6899023184","name":"Hotel Sofin","groupId":"g:osm:n6899023184","lineIds":["bus-23","bus-24","bus-34"],"source":"osm","sourceRef":"node/6899023184"},"geometry":{"type":"Point","coordinates":[28.037161,45.429419]}},{"type":"Feature","properties":{"id":"osm:n6899023182","name":"Strada Mihail Kogălniceanu","groupId":"g:osm:n6899023182","lineIds":["bus-23","bus-34"],"source":"osm","sourceRef":"node/6899023182"},"geometry":{"type":"Point","coordinates":[28.036677,45.434352]}},{"type":"Feature","properties":{"id":"osm:n6899023180","name":"Strada Tecuci","groupId":"g:osm:n6899129581","lineIds":["bus-23","bus-34"],"source":"osm","sourceRef":"node/6899023180"},"geometry":{"type":"Point","coordinates":[28.036205,45.439428]}},{"type":"Feature","properties":{"id":"osm:n6899023178","name":"Cimitirul Eternitatea","groupId":"g:osm:n6899129583","lineIds":["bus-23","bus-34"],"source":"osm","sourceRef":"node/6899023178"},"geometry":{"type":"Point","coordinates":[28.035899,45.442636]}},{"type":"Feature","properties":{"id":"osm:n6896006848","name":"TREFO","groupId":"g:osm:n6895095254","lineIds":["bus-24","bus-25","bus-34"],"source":"osm","sourceRef":"node/6896006848"},"geometry":{"type":"Point","coordinates":[28.034685,45.454842]}},{"type":"Feature","properties":{"id":"osm:n6899023174","name":"Patinoar","groupId":"g:osm:n14099675537","lineIds":["bus-26"],"source":"osm","sourceRef":"node/6899023174"},"geometry":{"type":"Point","coordinates":[28.034556,45.456467]}},{"type":"Feature","properties":{"id":"osm:n6899023172","name":"Galmopan","groupId":"g:osm:n14099845120","lineIds":["bus-26"],"source":"osm","sourceRef":"node/6899023172"},"geometry":{"type":"Point","coordinates":[28.034185,45.459843]}},{"type":"Feature","properties":{"id":"osm:n6899023170","name":"Bariera Traian","groupId":"g:osm:n6899023170","lineIds":["bus-35","bus-50","bus-55"],"source":"osm","sourceRef":"node/6899023170"},"geometry":{"type":"Point","coordinates":[28.035596,45.465674]}},{"type":"Feature","properties":{"id":"osm:n6899023168","name":"Strada Dumbrava Roșie","groupId":"g:osm:n6899152592","lineIds":["bus-35","bus-50","bus-55"],"source":"osm","sourceRef":"node/6899023168"},"geometry":{"type":"Point","coordinates":[28.034262,45.469359]}},{"type":"Feature","properties":{"id":"osm:n6899023166","name":"Cartierul nou","groupId":"g:osm:n6899152594","lineIds":["bus-35","bus-50","bus-55"],"source":"osm","sourceRef":"node/6899023166"},"geometry":{"type":"Point","coordinates":[28.034077,45.472305]}},{"type":"Feature","properties":{"id":"osm:n6899023165","name":"Automecanica","groupId":"g:osm:n6899152596","lineIds":["bus-35","bus-50","bus-55"],"source":"osm","sourceRef":"node/6899023165"},"geometry":{"type":"Point","coordinates":[28.033928,45.474934]}},{"type":"Feature","properties":{"id":"osm:n6899023163","name":"Fitosanitar","groupId":"g:osm:n6899152598","lineIds":["bus-35","bus-50","bus-55"],"source":"osm","sourceRef":"node/6899023163"},"geometry":{"type":"Point","coordinates":[28.033613,45.481276]}},{"type":"Feature","properties":{"id":"osm:n6899023161","name":"Metro","groupId":"g:osm:n6899023161","lineIds":["bus-35","bus-50","bus-55"],"source":"osm","sourceRef":"node/6899023161"},"geometry":{"type":"Point","coordinates":[28.03257,45.484268]}},{"type":"Feature","properties":{"id":"osm:n1720639168","name":"Casa Roșie","groupId":"g:osm:n1720639168","lineIds":["bus-11","bus-20"],"source":"osm","sourceRef":"node/1720639168"},"geometry":{"type":"Point","coordinates":[28.025129,45.430327]}},{"type":"Feature","properties":{"id":"osm:n6894604126","name":"Micro 40","groupId":"g:osm:n6894604126","lineIds":["bus-11","bus-2","bus-24","bus-25"],"source":"osm","sourceRef":"node/6894604126"},"geometry":{"type":"Point","coordinates":[28.024339,45.450111]}},{"type":"Feature","properties":{"id":"osm:n6899152598","name":"Fitosanitar","groupId":"g:osm:n6899152598","lineIds":["bus-35","bus-50","bus-55"],"source":"osm","sourceRef":"node/6899152598"},"geometry":{"type":"Point","coordinates":[28.033368,45.480496]}},{"type":"Feature","properties":{"id":"osm:n6899152596","name":"Automecanica","groupId":"g:osm:n6899152596","lineIds":["bus-35","bus-50","bus-55"],"source":"osm","sourceRef":"node/6899152596"},"geometry":{"type":"Point","coordinates":[28.033769,45.474356]}},{"type":"Feature","properties":{"id":"osm:n6899152594","name":"Cartierul nou","groupId":"g:osm:n6899152594","lineIds":["bus-35","bus-50","bus-55"],"source":"osm","sourceRef":"node/6899152594"},"geometry":{"type":"Point","coordinates":[28.033874,45.472383]}},{"type":"Feature","properties":{"id":"osm:n6899152592","name":"Strada Dumbrava Roșie","groupId":"g:osm:n6899152592","lineIds":["bus-35","bus-50","bus-55"],"source":"osm","sourceRef":"node/6899152592"},"geometry":{"type":"Point","coordinates":[28.034069,45.469298]}},{"type":"Feature","properties":{"id":"osm:n6899152589","name":"Galmopan","groupId":"g:osm:n14099845120","lineIds":["bus-26"],"source":"osm","sourceRef":"node/6899152589"},"geometry":{"type":"Point","coordinates":[28.033823,45.46087]}},{"type":"Feature","properties":{"id":"osm:n6899152587","name":"Patinoar","groupId":"g:osm:n14099675537","lineIds":["bus-26"],"source":"osm","sourceRef":"node/6899152587"},"geometry":{"type":"Point","coordinates":[28.034263,45.456798]}},{"type":"Feature","properties":{"id":"osm:n6895095254","name":"TREFO","groupId":"g:osm:n6895095254","lineIds":["bus-34"],"source":"osm","sourceRef":"node/6895095254"},"geometry":{"type":"Point","coordinates":[28.034521,45.453228]}},{"type":"Feature","properties":{"id":"osm:n6899152585","name":"Liceul C.F.R.","groupId":"g:osm:n6899152585","lineIds":["bus-23","bus-34"],"source":"osm","sourceRef":"node/6899152585"},"geometry":{"type":"Point","coordinates":[28.03515,45.447297]}},{"type":"Feature","properties":{"id":"osm:n6899129583","name":"Cimitirul Eternitatea","groupId":"g:osm:n6899129583","lineIds":["bus-23","bus-34"],"source":"osm","sourceRef":"node/6899129583"},"geometry":{"type":"Point","coordinates":[28.035712,45.442496]}},{"type":"Feature","properties":{"id":"osm:n6899129581","name":"Strada Tecuci","groupId":"g:osm:n6899129581","lineIds":["bus-23","bus-34"],"source":"osm","sourceRef":"node/6899129581"},"geometry":{"type":"Point","coordinates":[28.036139,45.438181]}},{"type":"Feature","properties":{"id":"osm:n6899129579","name":"Strada Crizantemelor","groupId":"g:osm:n6899129579","lineIds":["bus-23","bus-34"],"source":"osm","sourceRef":"node/6899129579"},"geometry":{"type":"Point","coordinates":[28.036471,45.434385]}},{"type":"Feature","properties":{"id":"osm:n6892672433","name":"Strada Dogăriei","groupId":"g:osm:n6893391140","lineIds":["bus-15"],"source":"osm","sourceRef":"node/6892672433"},"geometry":{"type":"Point","coordinates":[28.060449,45.435452]}},{"type":"Feature","properties":{"id":"osm:n6892672430","name":"Spitalul C.F.R.","groupId":"g:osm:n6893391142","lineIds":["bus-15"],"source":"osm","sourceRef":"node/6892672430"},"geometry":{"type":"Point","coordinates":[28.062271,45.438994]}},{"type":"Feature","properties":{"id":"osm:n6892672431","name":"Autogară","groupId":"g:osm:n6893391144","lineIds":["bus-15"],"source":"osm","sourceRef":"node/6892672431"},"geometry":{"type":"Point","coordinates":[28.061085,45.441579]}},{"type":"Feature","properties":{"id":"osm:n6893391144","name":"Autogară","groupId":"g:osm:n6893391144","lineIds":["bus-15"],"source":"osm","sourceRef":"node/6893391144"},"geometry":{"type":"Point","coordinates":[28.06075,45.441468]}},{"type":"Feature","properties":{"id":"osm:n6893391142","name":"Spitalul C.F.R.","groupId":"g:osm:n6893391142","lineIds":["bus-15"],"source":"osm","sourceRef":"node/6893391142"},"geometry":{"type":"Point","coordinates":[28.062342,45.43909]}},{"type":"Feature","properties":{"id":"osm:n6893391140","name":"Strada Dogăriei","groupId":"g:osm:n6893391140","lineIds":["bus-15"],"source":"osm","sourceRef":"node/6893391140"},"geometry":{"type":"Point","coordinates":[28.060234,45.435547]}},{"type":"Feature","properties":{"id":"osm:n6900809894","name":"Eroilor","groupId":"g:osm:n6900809894","lineIds":["bus-15"],"source":"osm","sourceRef":"node/6900809894"},"geometry":{"type":"Point","coordinates":[28.05286,45.440093]}},{"type":"Feature","properties":{"id":"osm:n6905457933","name":"Trecere BAC","groupId":"g:osm:n6905457933","lineIds":["bus-37"],"source":"osm","sourceRef":"node/6905457933"},"geometry":{"type":"Point","coordinates":[28.032758,45.41678]}},{"type":"Feature","properties":{"id":"osm:n6905457931","name":"Gamacris","groupId":"g:osm:n6905457934","lineIds":["bus-37"],"source":"osm","sourceRef":"node/6905457931"},"geometry":{"type":"Point","coordinates":[28.028879,45.422267]}},{"type":"Feature","properties":{"id":"osm:n6905457929","name":"Piața Țiglina 1","groupId":"g:osm:n6905457936","lineIds":["bus-37"],"source":"osm","sourceRef":"node/6905457929"},"geometry":{"type":"Point","coordinates":[28.029394,45.425305]}},{"type":"Feature","properties":{"id":"osm:n6895095257","name":"Piața Micro 39","groupId":"g:osm:n6895095257","lineIds":["bus-24","bus-25","bus-26","bus-34"],"source":"osm","sourceRef":"node/6895095257"},"geometry":{"type":"Point","coordinates":[28.02476,45.454829]}},{"type":"Feature","properties":{"id":"osm:n6960962993","name":"Kaufland","groupId":"g:osm:n6960962993","lineIds":["bus-24","bus-25","bus-26","bus-34"],"source":"osm","sourceRef":"node/6960962993"},"geometry":{"type":"Point","coordinates":[28.028955,45.455098]}},{"type":"Feature","properties":{"id":"osm:n6895095248","name":"Patinoar","groupId":"g:osm:n14099675537","lineIds":["bus-34"],"source":"osm","sourceRef":"node/6895095248"},"geometry":{"type":"Point","coordinates":[28.033518,45.455407]}},{"type":"Feature","properties":{"id":"osm:n6897791667","name":"Intfor","groupId":"g:osm:n6897791667","lineIds":["bus-34"],"source":"osm","sourceRef":"node/6897791667"},"geometry":{"type":"Point","coordinates":[28.071088,45.4372]}},{"type":"Feature","properties":{"id":"osm:n6924935089","name":"COMAT","groupId":"g:osm:n14101571553","lineIds":["bus-24","bus-25","bus-26","bus-34"],"source":"osm","sourceRef":"node/6924935089"},"geometry":{"type":"Point","coordinates":[28.028951,45.455376]}},{"type":"Feature","properties":{"id":"osm:n6896665346","name":"Dimitrie Cantemir","groupId":"g:osm:n6896665346","lineIds":["bus-1","bus-41"],"source":"osm","sourceRef":"node/6896665346"},"geometry":{"type":"Point","coordinates":[28.010052,45.388024]}},{"type":"Feature","properties":{"id":"osm:n6896665345","name":"Bloc S13","groupId":"g:osm:n6897986187","lineIds":["bus-1","bus-41"],"source":"osm","sourceRef":"node/6896665345"},"geometry":{"type":"Point","coordinates":[28.013924,45.388189]}},{"type":"Feature","properties":{"id":"osm:n6896665344","name":"Universitatea Danubius","groupId":"g:osm:n6897986189","lineIds":["bus-1","bus-41"],"source":"osm","sourceRef":"node/6896665344"},"geometry":{"type":"Point","coordinates":[28.015273,45.40378]}},{"type":"Feature","properties":{"id":"osm:n6935117728","name":"Micro 19","groupId":"g:osm:n6935117729","lineIds":["bus-23"],"source":"osm","sourceRef":"node/6935117728"},"geometry":{"type":"Point","coordinates":[28.012059,45.413049]}},{"type":"Feature","properties":{"id":"osm:n6935117729","name":"Micro 19","groupId":"g:osm:n6935117729","lineIds":["bus-23"],"source":"osm","sourceRef":"node/6935117729"},"geometry":{"type":"Point","coordinates":[28.011881,45.412935]}},{"type":"Feature","properties":{"id":"osm:n6897986189","name":"Universitatea Danubius","groupId":"g:osm:n6897986189","lineIds":["bus-23","bus-41"],"source":"osm","sourceRef":"node/6897986189"},"geometry":{"type":"Point","coordinates":[28.016099,45.403797]}},{"type":"Feature","properties":{"id":"osm:n6897986187","name":"Bloc S13","groupId":"g:osm:n6897986187","lineIds":["bus-41"],"source":"osm","sourceRef":"node/6897986187"},"geometry":{"type":"Point","coordinates":[28.0138,45.388319]}},{"type":"Feature","properties":{"id":"osm:n6960317096","name":"Complex Siretul","groupId":"g:osm:n6960317096","lineIds":["bus-20"],"source":"osm","sourceRef":"node/6960317096"},"geometry":{"type":"Point","coordinates":[28.017356,45.432631]}},{"type":"Feature","properties":{"id":"osm:n6960251152","name":"Școala nr. 10","groupId":"g:osm:n6960251152","lineIds":["bus-20"],"source":"osm","sourceRef":"node/6960251152"},"geometry":{"type":"Point","coordinates":[28.018183,45.434721]}},{"type":"Feature","properties":{"id":"osm:n6924979101","name":"Strada Domnească","groupId":"g:osm:n6924919277","lineIds":["bus-13","bus-20"],"source":"osm","sourceRef":"node/6924979101"},"geometry":{"type":"Point","coordinates":[28.055085,45.446091]}},{"type":"Feature","properties":{"id":"osm:n6906838262","name":"Baia comunală","groupId":"g:osm:n14101559980","lineIds":["bus-13","bus-20","bus-35","bus-50","bus-55"],"source":"osm","sourceRef":"node/6906838262"},"geometry":{"type":"Point","coordinates":[28.047,45.443242]}},{"type":"Feature","properties":{"id":"osm:n13353085396","name":"Piața centrală","groupId":"g:osm:n13353085396","lineIds":["bus-20"],"source":"osm","sourceRef":"node/13353085396"},"geometry":{"type":"Point","coordinates":[28.049809,45.437654]}},{"type":"Feature","properties":{"id":"osm:n6906785250","name":"Baia comunală","groupId":"g:osm:n14101559980","lineIds":["bus-13","bus-20","bus-35","bus-50","bus-55"],"source":"osm","sourceRef":"node/6906785250"},"geometry":{"type":"Point","coordinates":[28.047081,45.443373]}},{"type":"Feature","properties":{"id":"osm:n6924919277","name":"Strada Domnească","groupId":"g:osm:n6924919277","lineIds":["bus-13","bus-20"],"source":"osm","sourceRef":"node/6924919277"},"geometry":{"type":"Point","coordinates":[28.053666,45.445624]}},{"type":"Feature","properties":{"id":"osm:n6960963008","name":"Liceul „Sfânta Maria”","groupId":"g:osm:n6963443059","lineIds":["bus-24"],"source":"osm","sourceRef":"node/6960963008"},"geometry":{"type":"Point","coordinates":[28.030353,45.433604]}},{"type":"Feature","properties":{"id":"osm:n6960963007","name":"Strada Gheorghe Doja","groupId":"g:osm:n14099845128","lineIds":["bus-24"],"source":"osm","sourceRef":"node/6960963007"},"geometry":{"type":"Point","coordinates":[28.027149,45.434234]}},{"type":"Feature","properties":{"id":"osm:n6960963005","name":"Bloc C8A","groupId":"g:osm:n6960963005","lineIds":["bus-24"],"source":"osm","sourceRef":"node/6960963005"},"geometry":{"type":"Point","coordinates":[28.027501,45.437267]}},{"type":"Feature","properties":{"id":"osm:n6960963003","name":"Lidl","groupId":"g:osm:n6963443065","lineIds":["bus-24"],"source":"osm","sourceRef":"node/6960963003"},"geometry":{"type":"Point","coordinates":[28.028145,45.439719]}},{"type":"Feature","properties":{"id":"osm:n6960963001","name":"Bloc S1","groupId":"g:osm:n6960963001","lineIds":["bus-24"],"source":"osm","sourceRef":"node/6960963001"},"geometry":{"type":"Point","coordinates":[28.028703,45.441546]}},{"type":"Feature","properties":{"id":"osm:n6960962999","name":"Cin Cin","groupId":"g:osm:n6963443068","lineIds":["bus-24"],"source":"osm","sourceRef":"node/6960962999"},"geometry":{"type":"Point","coordinates":[28.028655,45.4447]}},{"type":"Feature","properties":{"id":"osm:n6960962997","name":"Bloc U10","groupId":"g:osm:n6963443070","lineIds":["bus-24"],"source":"osm","sourceRef":"node/6960962997"},"geometry":{"type":"Point","coordinates":[28.029498,45.446509]}},{"type":"Feature","properties":{"id":"osm:n6963443070","name":"Bloc U10","groupId":"g:osm:n6963443070","lineIds":["bus-24"],"source":"osm","sourceRef":"node/6963443070"},"geometry":{"type":"Point","coordinates":[28.029281,45.446551]}},{"type":"Feature","properties":{"id":"osm:n6963443068","name":"Cin Cin","groupId":"g:osm:n6963443068","lineIds":["bus-24"],"source":"osm","sourceRef":"node/6963443068"},"geometry":{"type":"Point","coordinates":[28.028431,45.444541]}},{"type":"Feature","properties":{"id":"osm:n6963443067","name":"Bloc R3","groupId":"g:osm:n6963443067","lineIds":["bus-24"],"source":"osm","sourceRef":"node/6963443067"},"geometry":{"type":"Point","coordinates":[28.028567,45.441706]}},{"type":"Feature","properties":{"id":"osm:n6963443065","name":"Lidl","groupId":"g:osm:n6963443065","lineIds":["bus-24"],"source":"osm","sourceRef":"node/6963443065"},"geometry":{"type":"Point","coordinates":[28.028085,45.439916]}},{"type":"Feature","properties":{"id":"osm:n6963443063","name":"Bloc C5A","groupId":"g:osm:n6963443063","lineIds":["bus-24"],"source":"osm","sourceRef":"node/6963443063"},"geometry":{"type":"Point","coordinates":[28.027414,45.437431]}},{"type":"Feature","properties":{"id":"osm:n6963443061","name":"Str. Gheorghe Doja","groupId":"g:osm:n6963443061","lineIds":["bus-24"],"source":"osm","sourceRef":"node/6963443061"},"geometry":{"type":"Point","coordinates":[28.026985,45.434735]}},{"type":"Feature","properties":{"id":"osm:n6963443059","name":"Liceul „Sfânta Maria”","groupId":"g:osm:n6963443059","lineIds":["bus-24"],"source":"osm","sourceRef":"node/6963443059"},"geometry":{"type":"Point","coordinates":[28.029477,45.433736]}},{"type":"Feature","properties":{"id":"osm:n6963443058","name":"Apaterm","groupId":"g:osm:n6963443058","lineIds":["bus-24"],"source":"osm","sourceRef":"node/6963443058"},"geometry":{"type":"Point","coordinates":[28.0336,45.433218]}},{"type":"Feature","properties":{"id":"osm:n14099675542","name":"Depou","groupId":"g:osm:n14099675542","lineIds":["tram-39"],"source":"osm","sourceRef":"node/14099675542"},"geometry":{"type":"Point","coordinates":[28.032544,45.464664]}},{"type":"Feature","properties":{"id":"osm:n14099845120","name":"Galmopan","groupId":"g:osm:n14099845120","lineIds":["tram-39"],"source":"osm","sourceRef":"node/14099845120"},"geometry":{"type":"Point","coordinates":[28.033899,45.460913]}},{"type":"Feature","properties":{"id":"osm:n14099675537","name":"Patinoar","groupId":"g:osm:n14099675537","lineIds":["tram-39"],"source":"osm","sourceRef":"node/14099675537"},"geometry":{"type":"Point","coordinates":[28.033962,45.455581]}},{"type":"Feature","properties":{"id":"osm:n14099675535","name":"Micro 39","groupId":"g:osm:n14099675535","lineIds":["tram-39","tram-44"],"source":"osm","sourceRef":"node/14099675535"},"geometry":{"type":"Point","coordinates":[28.024675,45.454981]}},{"type":"Feature","properties":{"id":"osm:n14099845122","name":"Bloc L","groupId":"g:osm:n14099845122","lineIds":["tram-39","tram-44"],"source":"osm","sourceRef":"node/14099845122"},"geometry":{"type":"Point","coordinates":[28.02355,45.450781]}},{"type":"Feature","properties":{"id":"osm:n14099845124","name":"Liceul Nr. 3","groupId":"g:osm:n14099845124","lineIds":["tram-39","tram-44"],"source":"osm","sourceRef":"node/14099845124"},"geometry":{"type":"Point","coordinates":[28.025039,45.448373]}},{"type":"Feature","properties":{"id":"osm:n14099845125","name":"Mașniță","groupId":"g:osm:n14099845125","lineIds":["tram-39","tram-44"],"source":"osm","sourceRef":"node/14099845125"},"geometry":{"type":"Point","coordinates":[28.021331,45.441942]}},{"type":"Feature","properties":{"id":"osm:n14099845126","name":"Piața Energiei","groupId":"g:osm:n14099845126","lineIds":["tram-39","tram-7"],"source":"osm","sourceRef":"node/14099845126"},"geometry":{"type":"Point","coordinates":[28.02141,45.439524]}},{"type":"Feature","properties":{"id":"osm:n14099845127","name":"IREG","groupId":"g:osm:n14099845127","lineIds":["tram-39","tram-7"],"source":"osm","sourceRef":"node/14099845127"},"geometry":{"type":"Point","coordinates":[28.02408,45.436141]}},{"type":"Feature","properties":{"id":"osm:n14099845128","name":"Strada Gheorghe Doja","groupId":"g:osm:n14099845128","lineIds":["tram-39","tram-7"],"source":"osm","sourceRef":"node/14099845128"},"geometry":{"type":"Point","coordinates":[28.025404,45.433549]}},{"type":"Feature","properties":{"id":"osm:n14099845129","name":"Spitalul de copii","groupId":"g:osm:n14099845129","lineIds":["tram-39","tram-7"],"source":"osm","sourceRef":"node/14099845129"},"geometry":{"type":"Point","coordinates":[28.024979,45.431017]}},{"type":"Feature","properties":{"id":"osm:n14099845131","name":"Strada Prelungirea Brăilei","groupId":"g:osm:n14099845131","lineIds":["tram-39","tram-7"],"source":"osm","sourceRef":"node/14099845131"},"geometry":{"type":"Point","coordinates":[28.018693,45.427281]}},{"type":"Feature","properties":{"id":"osm:n14099845132","name":"Strada Frunzei","groupId":"g:osm:n14099845132","lineIds":["tram-39","tram-7"],"source":"osm","sourceRef":"node/14099845132"},"geometry":{"type":"Point","coordinates":[28.019919,45.420791]}},{"type":"Feature","properties":{"id":"osm:n14099845133","name":"Bloc O","groupId":"g:osm:n14099845133","lineIds":["tram-39","tram-7"],"source":"osm","sourceRef":"node/14099845133"},"geometry":{"type":"Point","coordinates":[28.022571,45.416351]}},{"type":"Feature","properties":{"id":"osm:n14099845134","name":"Oțelarilor","groupId":"g:osm:n14099845134","lineIds":["tram-39","tram-7"],"source":"osm","sourceRef":"node/14099845134"},"geometry":{"type":"Point","coordinates":[28.018651,45.414365]}},{"type":"Feature","properties":{"id":"osm:n14099845135","name":"Micro 19 - Cinema Dacia","groupId":"g:osm:n14099845135","lineIds":["tram-39","tram-7"],"source":"osm","sourceRef":"node/14099845135"},"geometry":{"type":"Point","coordinates":[28.015583,45.412735]}},{"type":"Feature","properties":{"id":"osm:n14101559979","name":"Baia Comunală","groupId":"g:osm:n14101559980","lineIds":["tram-44","tram-7"],"source":"osm","sourceRef":"node/14101559979"},"geometry":{"type":"Point","coordinates":[28.046933,45.44355]}},{"type":"Feature","properties":{"id":"osm:n14101559982","name":"Strada Poșta Veche","groupId":"g:osm:n14101559983","lineIds":["tram-44","tram-7"],"source":"osm","sourceRef":"node/14101559982"},"geometry":{"type":"Point","coordinates":[28.040371,45.442361]}},{"type":"Feature","properties":{"id":"osm:n14101559977","name":"Strada George Coșbuc","groupId":"g:osm:n14101559985","lineIds":["tram-44","tram-7"],"source":"osm","sourceRef":"node/14101559977"},"geometry":{"type":"Point","coordinates":[28.036431,45.441347]}},{"type":"Feature","properties":{"id":"osm:n6924979093","name":"I.C. Frimu","groupId":"g:osm:n14101559986","lineIds":["tram-44","tram-7"],"source":"osm","sourceRef":"node/6924979093"},"geometry":{"type":"Point","coordinates":[28.029743,45.440685]}},{"type":"Feature","properties":{"id":"osm:n14101559976","name":"Biserica Sf. Mina","groupId":"g:osm:n14101559976","lineIds":["tram-44","tram-7"],"source":"osm","sourceRef":"node/14101559976"},"geometry":{"type":"Point","coordinates":[28.025741,45.440515]}},{"type":"Feature","properties":{"id":"osm:n14101559988","name":"Anghel Saligny (Ecosal)","groupId":"g:osm:n14101559988","lineIds":["tram-44","tram-7"],"source":"osm","sourceRef":"node/14101559988"},"geometry":{"type":"Point","coordinates":[28.026096,45.440454]}},{"type":"Feature","properties":{"id":"osm:n14101559986","name":"I.C. Frimu","groupId":"g:osm:n14101559986","lineIds":["tram-44","tram-7"],"source":"osm","sourceRef":"node/14101559986"},"geometry":{"type":"Point","coordinates":[28.029856,45.440617]}},{"type":"Feature","properties":{"id":"osm:n14101559985","name":"Strada George Coșbuc","groupId":"g:osm:n14101559985","lineIds":["tram-44","tram-7"],"source":"osm","sourceRef":"node/14101559985"},"geometry":{"type":"Point","coordinates":[28.035409,45.441066]}},{"type":"Feature","properties":{"id":"osm:n14101559983","name":"Strada Poșta Veche","groupId":"g:osm:n14101559983","lineIds":["tram-44","tram-7"],"source":"osm","sourceRef":"node/14101559983"},"geometry":{"type":"Point","coordinates":[28.040331,45.442301]}},{"type":"Feature","properties":{"id":"osm:n14101559980","name":"Baia Comunală","groupId":"g:osm:n14101559980","lineIds":["tram-44","tram-7"],"source":"osm","sourceRef":"node/14101559980"},"geometry":{"type":"Point","coordinates":[28.046907,45.443501]}},{"type":"Feature","properties":{"id":"osm:n14101571553","name":"COMAT","groupId":"g:osm:n14101571553","lineIds":["tram-44"],"source":"osm","sourceRef":"node/14101571553"},"geometry":{"type":"Point","coordinates":[28.028627,45.455504]}},{"type":"Feature","properties":{"id":"osm:n14086450125","name":"Căminele combinatului","groupId":"g:osm:n14086450125","lineIds":["bus-43"],"source":"osm","sourceRef":"node/14086450125"},"geometry":{"type":"Point","coordinates":[28.01336,45.442038]}},{"type":"Feature","properties":{"id":"osm:n14086946895","name":"Selgros","groupId":"g:osm:n14086946895","lineIds":["bus-23","bus-41"],"source":"osm","sourceRef":"node/14086946895"},"geometry":{"type":"Point","coordinates":[28.018579,45.405711]}},{"type":"Feature","properties":{"id":"osm:n14086946893","name":"Delfinul","groupId":"g:osm:n14086946893","lineIds":["bus-23","bus-41"],"source":"osm","sourceRef":"node/14086946893"},"geometry":{"type":"Point","coordinates":[28.022089,45.404997]}},{"type":"Feature","properties":{"id":"osm:n14086946891","name":"ATAC","groupId":"g:osm:n14086946891","lineIds":["bus-23","bus-41"],"source":"osm","sourceRef":"node/14086946891"},"geometry":{"type":"Point","coordinates":[28.020058,45.403937]}},{"type":"Feature","properties":{"id":"osm:n14088247742","name":"Petru Groza","groupId":"g:osm:n14088247742","lineIds":["bus-38"],"source":"osm","sourceRef":"node/14088247742"},"geometry":{"type":"Point","coordinates":[28.01087,45.420735]}},{"type":"Feature","properties":{"id":"osm:n14088247741","name":"Cartier Locuințe Sociale M17","groupId":"g:osm:n14088247741","lineIds":["bus-38"],"source":"osm","sourceRef":"node/14088247741"},"geometry":{"type":"Point","coordinates":[28.007198,45.423113]}},{"type":"Feature","properties":{"id":"osm:n14088247738","name":"Mathaus","groupId":"g:osm:n14088247738","lineIds":["bus-38"],"source":"osm","sourceRef":"node/14088247738"},"geometry":{"type":"Point","coordinates":[28.005198,45.424451]}},{"type":"Feature","properties":{"id":"osm:n14088247737","name":"Dedeman","groupId":"g:osm:n14088247737","lineIds":["bus-38"],"source":"osm","sourceRef":"node/14088247737"},"geometry":{"type":"Point","coordinates":[28.008862,45.426143]}},{"type":"Feature","properties":{"id":"osm:n14088247734","name":"Bloc L3","groupId":"g:osm:n14088247734","lineIds":["bus-38"],"source":"osm","sourceRef":"node/14088247734"},"geometry":{"type":"Point","coordinates":[28.013296,45.421395]}},{"type":"Feature","properties":{"id":"osm:n14088449870","name":"Levaditti","groupId":"g:osm:n14088449870","lineIds":["bus-37"],"source":"osm","sourceRef":"node/14088449870"},"geometry":{"type":"Point","coordinates":[28.014728,45.434877]}},{"type":"Feature","properties":{"id":"osm:n14088449868","name":"Bloc Bujor/Nufăr","groupId":"g:osm:n14088455589","lineIds":["bus-37"],"source":"osm","sourceRef":"node/14088449868"},"geometry":{"type":"Point","coordinates":[28.012979,45.431747]}},{"type":"Feature","properties":{"id":"osm:n6905457936","name":"Piața Țiglina 1","groupId":"g:osm:n6905457936","lineIds":["bus-37"],"source":"osm","sourceRef":"node/6905457936"},"geometry":{"type":"Point","coordinates":[28.029243,45.425348]}},{"type":"Feature","properties":{"id":"osm:n6905457934","name":"Gamacris","groupId":"g:osm:n6905457934","lineIds":["bus-37"],"source":"osm","sourceRef":"node/6905457934"},"geometry":{"type":"Point","coordinates":[28.028749,45.422364]}},{"type":"Feature","properties":{"id":"osm:n14088449866","name":"Siderurgistul","groupId":"g:osm:n14088449866","lineIds":["bus-37"],"source":"osm","sourceRef":"node/14088449866"},"geometry":{"type":"Point","coordinates":[28.028696,45.419513]}},{"type":"Feature","properties":{"id":"osm:n14088455591","name":"Cimitirul „Sfântul Lazăr”","groupId":"g:osm:n14088455591","lineIds":["bus-37"],"source":"osm","sourceRef":"node/14088455591"},"geometry":{"type":"Point","coordinates":[28.011772,45.427419]}},{"type":"Feature","properties":{"id":"osm:n14088455589","name":"Bloc Bujor/Nufăr","groupId":"g:osm:n14088455589","lineIds":["bus-37"],"source":"osm","sourceRef":"node/14088455589"},"geometry":{"type":"Point","coordinates":[28.013179,45.431781]}},{"type":"Feature","properties":{"id":"osm:n6896006852","name":"Spitalul Militar","groupId":"g:osm:n6895095250","lineIds":["bus-35","bus-50","bus-55"],"source":"osm","sourceRef":"node/6896006852"},"geometry":{"type":"Point","coordinates":[28.044053,45.448858]}},{"type":"Feature","properties":{"id":"osm:n6906838264","name":"Strada Vultur","groupId":"g:osm:n6906785248","lineIds":["bus-35","bus-50","bus-55"],"source":"osm","sourceRef":"node/6906838264"},"geometry":{"type":"Point","coordinates":[28.045383,45.446409]}},{"type":"Feature","properties":{"id":"osm:n6906785248","name":"Strada Vultur","groupId":"g:osm:n6906785248","lineIds":["bus-35","bus-50","bus-55"],"source":"osm","sourceRef":"node/6906785248"},"geometry":{"type":"Point","coordinates":[28.045431,45.446518]}},{"type":"Feature","properties":{"id":"osm:n6895095250","name":"Spitalul Militar","groupId":"g:osm:n6895095250","lineIds":["bus-35","bus-50","bus-55"],"source":"osm","sourceRef":"node/6895095250"},"geometry":{"type":"Point","coordinates":[28.043613,45.450077]}},{"type":"Feature","properties":{"id":"osm:n14090544333","name":"Barboși","groupId":"g:osm:n14090544333","lineIds":["bus-31"],"source":"osm","sourceRef":"node/14090544333"},"geometry":{"type":"Point","coordinates":[27.985738,45.397974]}},{"type":"Feature","properties":{"id":"osm:n14090544321","name":"Gara Barboși","groupId":"g:osm:n14090544331","lineIds":["bus-31"],"source":"osm","sourceRef":"node/14090544321"},"geometry":{"type":"Point","coordinates":[27.989036,45.401818]}},{"type":"Feature","properties":{"id":"osm:n14090544323","name":"Releu","groupId":"g:osm:n14090544327","lineIds":["bus-31"],"source":"osm","sourceRef":"node/14090544323"},"geometry":{"type":"Point","coordinates":[27.992435,45.405222]}},{"type":"Feature","properties":{"id":"osm:n14090544325","name":"Poligon","groupId":"g:osm:n14090544330","lineIds":["bus-31"],"source":"osm","sourceRef":"node/14090544325"},"geometry":{"type":"Point","coordinates":[27.998179,45.408057]}},{"type":"Feature","properties":{"id":"osm:n14090544330","name":"Poligon","groupId":"g:osm:n14090544330","lineIds":["bus-31"],"source":"osm","sourceRef":"node/14090544330"},"geometry":{"type":"Point","coordinates":[27.998093,45.408107]}},{"type":"Feature","properties":{"id":"osm:n14090544327","name":"Releu","groupId":"g:osm:n14090544327","lineIds":["bus-31"],"source":"osm","sourceRef":"node/14090544327"},"geometry":{"type":"Point","coordinates":[27.992393,45.405261]}},{"type":"Feature","properties":{"id":"osm:n14090544331","name":"Gara Barboși","groupId":"g:osm:n14090544331","lineIds":["bus-31"],"source":"osm","sourceRef":"node/14090544331"},"geometry":{"type":"Point","coordinates":[27.98857,45.401896]}},{"type":"Feature","properties":{"id":"osm:n14093112486","name":"ADA Motors (Borcan)","groupId":"g:osm:n14093112487","lineIds":["bus-30"],"source":"osm","sourceRef":"node/14093112486"},"geometry":{"type":"Point","coordinates":[27.97702,45.40797]}},{"type":"Feature","properties":{"id":"osm:n14093112483","name":"Str. Brăilei","groupId":"g:osm:n14093112489","lineIds":["bus-30"],"source":"osm","sourceRef":"node/14093112483"},"geometry":{"type":"Point","coordinates":[27.988447,45.40644]}},{"type":"Feature","properties":{"id":"osm:n14093112481","name":"Tirighina","groupId":"g:osm:n14093112491","lineIds":["bus-30"],"source":"osm","sourceRef":"node/14093112481"},"geometry":{"type":"Point","coordinates":[27.99422,45.408386]}},{"type":"Feature","properties":{"id":"osm:n14093112491","name":"Tirighina","groupId":"g:osm:n14093112491","lineIds":["bus-30"],"source":"osm","sourceRef":"node/14093112491"},"geometry":{"type":"Point","coordinates":[27.99397,45.408418]}},{"type":"Feature","properties":{"id":"osm:n14093112489","name":"Str. Brăilei","groupId":"g:osm:n14093112489","lineIds":["bus-30"],"source":"osm","sourceRef":"node/14093112489"},"geometry":{"type":"Point","coordinates":[27.988187,45.406611]}},{"type":"Feature","properties":{"id":"osm:n14093112487","name":"ADA Motors (Borcan)","groupId":"g:osm:n14093112487","lineIds":["bus-30"],"source":"osm","sourceRef":"node/14093112487"},"geometry":{"type":"Point","coordinates":[27.977038,45.40808]}},{"type":"Feature","properties":{"id":"osm:n14101713891","name":"Cimitirul Ștefan cel Mare","groupId":"g:osm:n14101695635","lineIds":["tram-39B"],"source":"osm","sourceRef":"node/14101713891"},"geometry":{"type":"Point","coordinates":[28.020412,45.461941]}},{"type":"Feature","properties":{"id":"osm:n14101713889","name":"Cimitirul Israelit","groupId":"g:osm:n14101695637","lineIds":["tram-39B"],"source":"osm","sourceRef":"node/14101713889"},"geometry":{"type":"Point","coordinates":[28.020527,45.465466]}},{"type":"Feature","properties":{"id":"osm:n14101713887","name":"Strada Arcașilor","groupId":"g:osm:n14101695641","lineIds":["tram-39B"],"source":"osm","sourceRef":"node/14101713887"},"geometry":{"type":"Point","coordinates":[28.028504,45.465566]}},{"type":"Feature","properties":{"id":"osm:n14101713885","name":"Depoul Nr. 2","groupId":"g:osm:n14101695643","lineIds":["tram-39B"],"source":"osm","sourceRef":"node/14101713885"},"geometry":{"type":"Point","coordinates":[28.031161,45.465601]}},{"type":"Feature","properties":{"id":"osm:n14101713883","name":"Spitalul Nr. 3","groupId":"g:osm:n14101713883","lineIds":["tram-39B"],"source":"osm","sourceRef":"node/14101713883"},"geometry":{"type":"Point","coordinates":[28.032603,45.465405]}},{"type":"Feature","properties":{"id":"osm:n14101695643","name":"Depoul Nr. 2","groupId":"g:osm:n14101695643","lineIds":["tram-39B"],"source":"osm","sourceRef":"node/14101695643"},"geometry":{"type":"Point","coordinates":[28.032336,45.465788]}},{"type":"Feature","properties":{"id":"osm:n14101695641","name":"Strada Arcașilor","groupId":"g:osm:n14101695641","lineIds":["tram-39B"],"source":"osm","sourceRef":"node/14101695641"},"geometry":{"type":"Point","coordinates":[28.028291,45.465737]}},{"type":"Feature","properties":{"id":"osm:n14101695639","name":"Ștefan cel Mare","groupId":"g:osm:n14101695639","lineIds":["tram-39B"],"source":"osm","sourceRef":"node/14101695639"},"geometry":{"type":"Point","coordinates":[28.023938,45.465683]}},{"type":"Feature","properties":{"id":"osm:n14101695637","name":"Cimitirul Israelit","groupId":"g:osm:n14101695637","lineIds":["tram-39B"],"source":"osm","sourceRef":"node/14101695637"},"geometry":{"type":"Point","coordinates":[28.020371,45.465637]}},{"type":"Feature","properties":{"id":"osm:n14101695635","name":"Cimitirul Ștefan cel Mare","groupId":"g:osm:n14101695635","lineIds":["tram-39B"],"source":"osm","sourceRef":"node/14101695635"},"geometry":{"type":"Point","coordinates":[28.020252,45.461891]}},{"type":"Feature","properties":{"id":"osm:n14103649667","name":"Poligonului Vale","groupId":"g:osm:n14103649667","lineIds":["bus-55"],"source":"osm","sourceRef":"node/14103649667"},"geometry":{"type":"Point","coordinates":[28.026243,45.493114]}},{"type":"Feature","properties":{"id":"osm:n14103649665","name":"Parc Poligonului","groupId":"g:osm:n14103649665","lineIds":["bus-55"],"source":"osm","sourceRef":"node/14103649665"},"geometry":{"type":"Point","coordinates":[28.023606,45.493088]}},{"type":"Feature","properties":{"id":"osm:n14103649663","name":"Strada Forturilor Nr. 15","groupId":"g:osm:n14103649663","lineIds":["bus-55"],"source":"osm","sourceRef":"node/14103649663"},"geometry":{"type":"Point","coordinates":[28.019418,45.493327]}},{"type":"Feature","properties":{"id":"osm:n14103649661","name":"Strada Marinarilor","groupId":"g:osm:n14103649661","lineIds":["bus-55"],"source":"osm","sourceRef":"node/14103649661"},"geometry":{"type":"Point","coordinates":[28.0194,45.495773]}},{"type":"Feature","properties":{"id":"osm:n14103649659","name":"Cuib de Barză","groupId":"g:osm:n14103649659","lineIds":["bus-55"],"source":"osm","sourceRef":"node/14103649659"},"geometry":{"type":"Point","coordinates":[28.016165,45.498264]}},{"type":"Feature","properties":{"id":"osm:n14103649657","name":"Forturilor","groupId":"g:osm:n14103649657","lineIds":["bus-55"],"source":"osm","sourceRef":"node/14103649657"},"geometry":{"type":"Point","coordinates":[28.018766,45.498957]}},{"type":"Feature","properties":{"id":"osm:n14103649655","name":"Ștefan cel Mare","groupId":"g:osm:n14103649655","lineIds":["bus-55"],"source":"osm","sourceRef":"node/14103649655"},"geometry":{"type":"Point","coordinates":[28.024663,45.499257]}},{"type":"Feature","properties":{"id":"osm:n14103726164","name":"Lebedei","groupId":"g:osm:n14103726164","lineIds":["bus-55"],"source":"osm","sourceRef":"node/14103726164"},"geometry":{"type":"Point","coordinates":[28.028243,45.500059]}},{"type":"Feature","properties":{"id":"osm:n14103649653","name":"Stație Carburanți","groupId":"g:osm:n14103649653","lineIds":["bus-55"],"source":"osm","sourceRef":"node/14103649653"},"geometry":{"type":"Point","coordinates":[28.031703,45.499784]}},{"type":"Feature","properties":{"id":"osm:n14103649651","name":"Poligonului-Floricultura","groupId":"g:osm:n14103649651","lineIds":["bus-50"],"source":"osm","sourceRef":"node/14103649651"},"geometry":{"type":"Point","coordinates":[28.03279,45.492699]}},{"type":"Feature","properties":{"id":"osm:n14103649671","name":"Staer (PC)","groupId":"g:osm:n14103649671","lineIds":["bus-50"],"source":"osm","sourceRef":"node/14103649671"},"geometry":{"type":"Point","coordinates":[28.032827,45.491448]}},{"type":"Feature","properties":{"id":"osm:n14103649675","name":"Pietricica","groupId":"g:osm:n14103649677","lineIds":["bus-50","bus-55"],"source":"osm","sourceRef":"node/14103649675"},"geometry":{"type":"Point","coordinates":[28.033054,45.488181]}},{"type":"Feature","properties":{"id":"osm:n14103649677","name":"Pietricica","groupId":"g:osm:n14103649677","lineIds":["bus-50","bus-55"],"source":"osm","sourceRef":"node/14103649677"},"geometry":{"type":"Point","coordinates":[28.033246,45.48823]}},{"type":"Feature","properties":{"id":"osm:n14103649673","name":"Staer Intermedia","groupId":"g:osm:n14103649673","lineIds":["bus-50","bus-55"],"source":"osm","sourceRef":"node/14103649673"},"geometry":{"type":"Point","coordinates":[28.033076,45.491599]}},{"type":"Feature","properties":{"id":"osm:n14103649669","name":"Traian Parc","groupId":"g:osm:n14103649669","lineIds":["bus-50","bus-55"],"source":"osm","sourceRef":"node/14103649669"},"geometry":{"type":"Point","coordinates":[28.033004,45.493214]}},{"type":"Feature","properties":{"id":"osm:n14103799429","name":"Costi","groupId":"g:osm:n14104228554","lineIds":["bus-50"],"source":"osm","sourceRef":"node/14103799429"},"geometry":{"type":"Point","coordinates":[28.032677,45.499512]}},{"type":"Feature","properties":{"id":"osm:n14103799427","name":"Iveco","groupId":"g:osm:n14103799427","lineIds":["bus-50"],"source":"osm","sourceRef":"node/14103799427"},"geometry":{"type":"Point","coordinates":[28.032451,45.503891]}},{"type":"Feature","properties":{"id":"osm:n14103903319","name":"Tuluc","groupId":"g:osm:n14104228558","lineIds":["bus-50"],"source":"osm","sourceRef":"node/14103903319"},"geometry":{"type":"Point","coordinates":[28.032036,45.510305]}},{"type":"Feature","properties":{"id":"osm:n14103799426","name":"Iricad","groupId":"g:osm:n14104228560","lineIds":["bus-50"],"source":"osm","sourceRef":"node/14103799426"},"geometry":{"type":"Point","coordinates":[28.03181,45.514907]}},{"type":"Feature","properties":{"id":"osm:n14103799423","name":"Han","groupId":"g:osm:n14104228562","lineIds":["bus-50"],"source":"osm","sourceRef":"node/14103799423"},"geometry":{"type":"Point","coordinates":[28.031616,45.518275]}},{"type":"Feature","properties":{"id":"osm:n14103799421","name":"Avram Iancu","groupId":"g:osm:n14104199083","lineIds":["bus-50"],"source":"osm","sourceRef":"node/14103799421"},"geometry":{"type":"Point","coordinates":[28.0314,45.522817]}},{"type":"Feature","properties":{"id":"osm:n14103903317","name":"DN26 Farmacie","groupId":"g:osm:n14103903317","lineIds":["bus-50"],"source":"osm","sourceRef":"node/14103903317"},"geometry":{"type":"Point","coordinates":[28.031296,45.524852]}},{"type":"Feature","properties":{"id":"osm:n14103799419","name":"Alunului","groupId":"g:osm:n14104199085","lineIds":["bus-50"],"source":"osm","sourceRef":"node/14103799419"},"geometry":{"type":"Point","coordinates":[28.031223,45.52612]}},{"type":"Feature","properties":{"id":"osm:n14103799417","name":"Strada Serelor","groupId":"g:osm:n14103799417","lineIds":["bus-50"],"source":"osm","sourceRef":"node/14103799417"},"geometry":{"type":"Point","coordinates":[28.030161,45.530903]}},{"type":"Feature","properties":{"id":"osm:n14103799415","name":"Stejarului","groupId":"g:osm:n14104199091","lineIds":["bus-50"],"source":"osm","sourceRef":"node/14103799415"},"geometry":{"type":"Point","coordinates":[28.02323,45.53027]}},{"type":"Feature","properties":{"id":"osm:n14103873227","name":"Școală","groupId":"g:osm:n14104199093","lineIds":["bus-50"],"source":"osm","sourceRef":"node/14103873227"},"geometry":{"type":"Point","coordinates":[28.016245,45.529607]}},{"type":"Feature","properties":{"id":"osm:n14103873225","name":"Primărie","groupId":"g:osm:n14103873225","lineIds":["bus-50"],"source":"osm","sourceRef":"node/14103873225"},"geometry":{"type":"Point","coordinates":[28.014796,45.53162]}},{"type":"Feature","properties":{"id":"osm:n14103873223","name":"Vișinului","groupId":"g:osm:n14104199097","lineIds":["bus-50"],"source":"osm","sourceRef":"node/14103873223"},"geometry":{"type":"Point","coordinates":[28.009984,45.531521]}},{"type":"Feature","properties":{"id":"osm:n14103873221","name":"Tufanelelor","groupId":"g:osm:n14104199099","lineIds":["bus-50"],"source":"osm","sourceRef":"node/14103873221"},"geometry":{"type":"Point","coordinates":[28.00837,45.534436]}},{"type":"Feature","properties":{"id":"osm:n14103873219","name":"Prelungirea prunului","groupId":"g:osm:n14103873219","lineIds":["bus-50"],"source":"osm","sourceRef":"node/14103873219"},"geometry":{"type":"Point","coordinates":[28.004181,45.537332]}},{"type":"Feature","properties":{"id":"osm:n14103873215","name":"Castanelor","groupId":"g:osm:n14104248903","lineIds":["bus-50"],"source":"osm","sourceRef":"node/14103873215"},"geometry":{"type":"Point","coordinates":[27.999267,45.540789]}},{"type":"Feature","properties":{"id":"osm:n14103873217","name":"Strada Zambilelor","groupId":"g:osm:n14104248905","lineIds":["bus-50"],"source":"osm","sourceRef":"node/14103873217"},"geometry":{"type":"Point","coordinates":[27.996858,45.542458]}},{"type":"Feature","properties":{"id":"osm:n14103873213","name":"Pădurarului","groupId":"g:osm:n14104248907","lineIds":["bus-50"],"source":"osm","sourceRef":"node/14103873213"},"geometry":{"type":"Point","coordinates":[27.994747,45.543936]}},{"type":"Feature","properties":{"id":"osm:n14103873211","name":"Podgorenilor","groupId":"g:osm:n14104248909","lineIds":["bus-50"],"source":"osm","sourceRef":"node/14103873211"},"geometry":{"type":"Point","coordinates":[27.990987,45.545166]}},{"type":"Feature","properties":{"id":"osm:n14103873209","name":"Cumpăna","groupId":"g:osm:n14104248912","lineIds":["bus-50"],"source":"osm","sourceRef":"node/14103873209"},"geometry":{"type":"Point","coordinates":[27.989104,45.547919]}},{"type":"Feature","properties":{"id":"osm:n14103873207","name":"Din Vale","groupId":"g:osm:n14104248914","lineIds":["bus-50"],"source":"osm","sourceRef":"node/14103873207"},"geometry":{"type":"Point","coordinates":[27.986886,45.550433]}},{"type":"Feature","properties":{"id":"osm:n14104248914","name":"Din Vale","groupId":"g:osm:n14104248914","lineIds":["bus-50"],"source":"osm","sourceRef":"node/14104248914"},"geometry":{"type":"Point","coordinates":[27.986843,45.550348]}},{"type":"Feature","properties":{"id":"osm:n14104248912","name":"Cumpăna","groupId":"g:osm:n14104248912","lineIds":["bus-50"],"source":"osm","sourceRef":"node/14104248912"},"geometry":{"type":"Point","coordinates":[27.988973,45.547844]}},{"type":"Feature","properties":{"id":"osm:n14104248909","name":"Podgorenilor","groupId":"g:osm:n14104248909","lineIds":["bus-50"],"source":"osm","sourceRef":"node/14104248909"},"geometry":{"type":"Point","coordinates":[27.991034,45.545081]}},{"type":"Feature","properties":{"id":"osm:n14104248907","name":"Pădurarului","groupId":"g:osm:n14104248907","lineIds":["bus-50"],"source":"osm","sourceRef":"node/14104248907"},"geometry":{"type":"Point","coordinates":[27.994685,45.543838]}},{"type":"Feature","properties":{"id":"osm:n14104248905","name":"Strada Zambilelor","groupId":"g:osm:n14104248905","lineIds":["bus-50"],"source":"osm","sourceRef":"node/14104248905"},"geometry":{"type":"Point","coordinates":[27.996829,45.542356]}},{"type":"Feature","properties":{"id":"osm:n14104248903","name":"Castanelor","groupId":"g:osm:n14104248903","lineIds":["bus-50"],"source":"osm","sourceRef":"node/14104248903"},"geometry":{"type":"Point","coordinates":[27.999216,45.540702]}},{"type":"Feature","properties":{"id":"osm:n14104248901","name":"Dispensar","groupId":"g:osm:n14104248901","lineIds":["bus-50"],"source":"osm","sourceRef":"node/14104248901"},"geometry":{"type":"Point","coordinates":[28.003782,45.537348]}},{"type":"Feature","properties":{"id":"osm:n14104199099","name":"Tufanelelor","groupId":"g:osm:n14104199099","lineIds":["bus-50"],"source":"osm","sourceRef":"node/14104199099"},"geometry":{"type":"Point","coordinates":[28.008333,45.534337]}},{"type":"Feature","properties":{"id":"osm:n14104199097","name":"Vișinului","groupId":"g:osm:n14104199097","lineIds":["bus-50"],"source":"osm","sourceRef":"node/14104199097"},"geometry":{"type":"Point","coordinates":[28.010057,45.531427]}},{"type":"Feature","properties":{"id":"osm:n14104199095","name":"Parc Central","groupId":"g:osm:n14104199095","lineIds":["bus-50"],"source":"osm","sourceRef":"node/14104199095"},"geometry":{"type":"Point","coordinates":[28.013562,45.531685]}},{"type":"Feature","properties":{"id":"osm:n14104199093","name":"Școală","groupId":"g:osm:n14104199093","lineIds":["bus-50"],"source":"osm","sourceRef":"node/14104199093"},"geometry":{"type":"Point","coordinates":[28.014981,45.529485]}},{"type":"Feature","properties":{"id":"osm:n14104199091","name":"Stejarului","groupId":"g:osm:n14104199091","lineIds":["bus-50"],"source":"osm","sourceRef":"node/14104199091"},"geometry":{"type":"Point","coordinates":[28.023332,45.530191]}},{"type":"Feature","properties":{"id":"osm:n14104199090","name":"Belarus","groupId":"g:osm:n14104199090","lineIds":["bus-50"],"source":"osm","sourceRef":"node/14104199090"},"geometry":{"type":"Point","coordinates":[28.030222,45.530819]}},{"type":"Feature","properties":{"id":"osm:n14104199088","name":"Farmacie","groupId":"g:osm:n14104199088","lineIds":["bus-50"],"source":"osm","sourceRef":"node/14104199088"},"geometry":{"type":"Point","coordinates":[28.030915,45.528978]}},{"type":"Feature","properties":{"id":"osm:n14104199085","name":"Alunului","groupId":"g:osm:n14104199085","lineIds":["bus-50"],"source":"osm","sourceRef":"node/14104199085"},"geometry":{"type":"Point","coordinates":[28.031103,45.526239]}},{"type":"Feature","properties":{"id":"osm:n14104199083","name":"Avram Iancu","groupId":"g:osm:n14104199083","lineIds":["bus-50"],"source":"osm","sourceRef":"node/14104199083"},"geometry":{"type":"Point","coordinates":[28.031286,45.522788]}},{"type":"Feature","properties":{"id":"osm:n14104228562","name":"Han","groupId":"g:osm:n14104228562","lineIds":["bus-50"],"source":"osm","sourceRef":"node/14104228562"},"geometry":{"type":"Point","coordinates":[28.031453,45.518362]}},{"type":"Feature","properties":{"id":"osm:n14104228560","name":"Iricad","groupId":"g:osm:n14104228560","lineIds":["bus-50"],"source":"osm","sourceRef":"node/14104228560"},"geometry":{"type":"Point","coordinates":[28.031712,45.514978]}},{"type":"Feature","properties":{"id":"osm:n14104228558","name":"Tuluc","groupId":"g:osm:n14104228558","lineIds":["bus-50"],"source":"osm","sourceRef":"node/14104228558"},"geometry":{"type":"Point","coordinates":[28.031932,45.510329]}},{"type":"Feature","properties":{"id":"osm:n14104228556","name":"DMT","groupId":"g:osm:n14104228556","lineIds":["bus-50"],"source":"osm","sourceRef":"node/14104228556"},"geometry":{"type":"Point","coordinates":[28.032152,45.50454]}},{"type":"Feature","properties":{"id":"osm:n14104228554","name":"Costi","groupId":"g:osm:n14104228554","lineIds":["bus-50"],"source":"osm","sourceRef":"node/14104228554"},"geometry":{"type":"Point","coordinates":[28.032441,45.499447]}},{"type":"Feature","properties":{"id":"osm:n10827071354","name":"Calea Prutului","groupId":"g:osm:n10827071355","lineIds":["bus-13"],"source":"osm","sourceRef":"node/10827071354"},"geometry":{"type":"Point","coordinates":[28.056899,45.446449]}},{"type":"Feature","properties":{"id":"osm:n12588104510","name":"Menarom","groupId":"g:osm:n1129805792","lineIds":["bus-13"],"source":"osm","sourceRef":"node/12588104510"},"geometry":{"type":"Point","coordinates":[28.067278,45.447957]}},{"type":"Feature","properties":{"id":"osm:n10827071352","name":"Elnav/Mariano","groupId":"g:osm:n1129805685","lineIds":["bus-13"],"source":"osm","sourceRef":"node/10827071352"},"geometry":{"type":"Point","coordinates":[28.073053,45.447873]}},{"type":"Feature","properties":{"id":"osm:n10466845815","name":"DAMEN","groupId":"g:osm:n1129805725","lineIds":["bus-13"],"source":"osm","sourceRef":"node/10466845815"},"geometry":{"type":"Point","coordinates":[28.083307,45.447643]}},{"type":"Feature","properties":{"id":"osm:n10827071356","name":"Biserica Sfântul Dumitru","groupId":"g:osm:n10827071357","lineIds":["bus-13"],"source":"osm","sourceRef":"node/10827071356"},"geometry":{"type":"Point","coordinates":[28.090102,45.44748]}},{"type":"Feature","properties":{"id":"osm:n10827071351","name":"Bazinul nou","groupId":"g:osm:n10770795792","lineIds":["bus-13"],"source":"osm","sourceRef":"node/10827071351"},"geometry":{"type":"Point","coordinates":[28.094593,45.44735]}},{"type":"Feature","properties":{"id":"osm:n14105575496","name":"Aleea Nordului","groupId":"g:osm:n14105575497","lineIds":["bus-13"],"source":"osm","sourceRef":"node/14105575496"},"geometry":{"type":"Point","coordinates":[28.099458,45.447525]}},{"type":"Feature","properties":{"id":"osm:n14105660712","name":"Agrogal","groupId":"g:osm:n14105575494","lineIds":["bus-13"],"source":"osm","sourceRef":"node/14105660712"},"geometry":{"type":"Point","coordinates":[28.123643,45.450479]}},{"type":"Feature","properties":{"id":"osm:n14105575494","name":"Agrogal","groupId":"g:osm:n14105575494","lineIds":["bus-13"],"source":"osm","sourceRef":"node/14105575494"},"geometry":{"type":"Point","coordinates":[28.123573,45.450569]}},{"type":"Feature","properties":{"id":"osm:n14105575497","name":"Aleea Nordului","groupId":"g:osm:n14105575497","lineIds":["bus-13"],"source":"osm","sourceRef":"node/14105575497"},"geometry":{"type":"Point","coordinates":[28.099386,45.447593]}},{"type":"Feature","properties":{"id":"osm:n10770795792","name":"Bazinul nou","groupId":"g:osm:n10770795792","lineIds":["bus-13"],"source":"osm","sourceRef":"node/10770795792"},"geometry":{"type":"Point","coordinates":[28.094594,45.447433]}},{"type":"Feature","properties":{"id":"osm:n10827071357","name":"Biserica Sfântul Dumitru","groupId":"g:osm:n10827071357","lineIds":["bus-13"],"source":"osm","sourceRef":"node/10827071357"},"geometry":{"type":"Point","coordinates":[28.090148,45.447526]}},{"type":"Feature","properties":{"id":"osm:n1129805725","name":"DAMEN","groupId":"g:osm:n1129805725","lineIds":["bus-13"],"source":"osm","sourceRef":"node/1129805725"},"geometry":{"type":"Point","coordinates":[28.083344,45.447679]}},{"type":"Feature","properties":{"id":"osm:n1129805685","name":"Elnav/Mariano","groupId":"g:osm:n1129805685","lineIds":["bus-13"],"source":"osm","sourceRef":"node/1129805685"},"geometry":{"type":"Point","coordinates":[28.07308,45.447902]}},{"type":"Feature","properties":{"id":"osm:n1129805792","name":"Menarom","groupId":"g:osm:n1129805792","lineIds":["bus-13"],"source":"osm","sourceRef":"node/1129805792"},"geometry":{"type":"Point","coordinates":[28.067334,45.448059]}},{"type":"Feature","properties":{"id":"osm:n10827071355","name":"Calea Prutului","groupId":"g:osm:n10827071355","lineIds":["bus-13"],"source":"osm","sourceRef":"node/10827071355"},"geometry":{"type":"Point","coordinates":[28.05701,45.446611]}},{"type":"Feature","properties":{"id":"osm:n14106133826","name":"Strada Feroviarilor","groupId":"g:osm:n14106173160","lineIds":["bus-25"],"source":"osm","sourceRef":"node/14106133826"},"geometry":{"type":"Point","coordinates":[28.014131,45.447258]}},{"type":"Feature","properties":{"id":"osm:n14106133824","name":"Stația de betoane","groupId":"g:osm:n14106173163","lineIds":["bus-25"],"source":"osm","sourceRef":"node/14106133824"},"geometry":{"type":"Point","coordinates":[28.00768,45.448105]}},{"type":"Feature","properties":{"id":"osm:n14106133822","name":"Filești","groupId":"g:osm:n14106173164","lineIds":["bus-25"],"source":"osm","sourceRef":"node/14106133822"},"geometry":{"type":"Point","coordinates":[28.004903,45.449323]}},{"type":"Feature","properties":{"id":"osm:n14106133820","name":"Piața Filești","groupId":"g:osm:n14106173166","lineIds":["bus-25"],"source":"osm","sourceRef":"node/14106133820"},"geometry":{"type":"Point","coordinates":[28.00497,45.451795]}},{"type":"Feature","properties":{"id":"osm:n14106133818","name":"Tastrom 2","groupId":"g:osm:n14106173168","lineIds":["bus-25"],"source":"osm","sourceRef":"node/14106133818"},"geometry":{"type":"Point","coordinates":[28.003928,45.454132]}},{"type":"Feature","properties":{"id":"osm:n14106133816","name":"Pista betonată","groupId":"g:osm:n14106173171","lineIds":["bus-25"],"source":"osm","sourceRef":"node/14106133816"},"geometry":{"type":"Point","coordinates":[28.002459,45.45811]}},{"type":"Feature","properties":{"id":"osm:n14106173171","name":"Pista betonată","groupId":"g:osm:n14106173171","lineIds":["bus-25"],"source":"osm","sourceRef":"node/14106173171"},"geometry":{"type":"Point","coordinates":[28.002428,45.458279]}},{"type":"Feature","properties":{"id":"osm:n14106173168","name":"Tastrom 2","groupId":"g:osm:n14106173168","lineIds":["bus-25"],"source":"osm","sourceRef":"node/14106173168"},"geometry":{"type":"Point","coordinates":[28.004067,45.453978]}},{"type":"Feature","properties":{"id":"osm:n14106173166","name":"Piața Filești","groupId":"g:osm:n14106173166","lineIds":["bus-25"],"source":"osm","sourceRef":"node/14106173166"},"geometry":{"type":"Point","coordinates":[28.004811,45.451705]}},{"type":"Feature","properties":{"id":"osm:n14106173164","name":"Filești","groupId":"g:osm:n14106173164","lineIds":["bus-25"],"source":"osm","sourceRef":"node/14106173164"},"geometry":{"type":"Point","coordinates":[28.004695,45.44932]}},{"type":"Feature","properties":{"id":"osm:n14106173163","name":"Stația de betoane","groupId":"g:osm:n14106173163","lineIds":["bus-25"],"source":"osm","sourceRef":"node/14106173163"},"geometry":{"type":"Point","coordinates":[28.007866,45.44788]}},{"type":"Feature","properties":{"id":"osm:n14106173160","name":"Strada Feroviarilor","groupId":"g:osm:n14106173160","lineIds":["bus-25"],"source":"osm","sourceRef":"node/14106173160"},"geometry":{"type":"Point","coordinates":[28.01403,45.44709]}}]}